{"type": "FeatureCollection", "features": [{"id": "323", "type": "Feature", "properties": {"name": "Gökçekısık köyü yolu", "_mahalle_str": "Kızılinler Mahallesi", "_hvi_str": "%83", "_aciklama_str": "Sıcaklık: çok yüksek<br>Ağaç örtüsü: yüksek<br>Hastaneye uzaklık: çok uzak<br>Yeşil alana uzaklık: çok uzak<br>Yapılaşma yoğunluğu: çok seyrek<br>Nüfus yoğunluğu: seyrek<br>Yaşlı nüfus oranı: orta<br>Çocuk nüfus oranı: orta<br>Sosyoekonomik gelişmişlik: düşük"}, "geometry": {"type": "LineString", "coordinates": [[30.3820589, 39.6992228], [30.3821721, 39.6995626], [30.3823193, 39.6998284], [30.3824575, 39.6999771], [30.3825458, 39.7000723], [30.3828686, 39.7003294], [30.3836443, 39.7008129], [30.3848786, 39.7014925], [30.3858912, 39.7019561], [30.3868942, 39.7024291], [30.3884722, 39.7030865], [30.3907434, 39.7040671], [30.3918752, 39.7045558], [30.394421, 39.7056993], [30.3945776, 39.7057663], [30.3986901, 39.7075656], [30.4015117, 39.7089652]]}, "bbox": [30.3820589, 39.6992228, 30.4015117, 39.7089652]}, {"id": "347", "type": "Feature", "properties": {"name": null, "_mahalle_str": "Kızılinler Mahallesi", "_hvi_str": "%76", "_aciklama_str": "Sıcaklık: çok yüksek<br>Ağaç örtüsü: yüksek<br>Hastaneye uzaklık: çok uzak<br>Yeşil alana uzaklık: çok uzak<br>Yapılaşma yoğunluğu: çok seyrek<br>Nüfus yoğunluğu: seyrek<br>Yaşlı nüfus oranı: orta<br>Çocuk nüfus oranı: orta<br>Sosyoekonomik gelişmişlik: düşük"}, "geometry": {"type": "LineString", "coordinates": [[30.405628, 39.7058531], [30.4051251, 39.7062484], [30.404983, 39.7063956], [30.404819, 39.7064755], [30.404316, 39.706669], [30.403999, 39.7068456], [30.4037257, 39.7070685], [30.4034788, 39.7073712], [30.4031407, 39.7076236], [30.4027481, 39.7078648], [30.4025735, 39.7079671], [30.4018998, 39.7084689], [30.4016757, 39.708818], [30.4015117, 39.7089652]]}, "bbox": [30.4015117, 39.7058531, 30.405628, 39.7089652]}, {"id": "348", "type": "Feature", "properties": {"name": null, "_mahalle_str": "Kızılinler Mahallesi", "_hvi_str": "%83", "_aciklama_str": "Sıcaklık: çok yüksek<br>Ağaç örtüsü: yüksek<br>Hastaneye uzaklık: çok uzak<br>Yeşil alana uzaklık: çok uzak<br>Yapılaşma yoğunluğu: çok seyrek<br>Nüfus yoğunluğu: seyrek<br>Yaşlı nüfus oranı: orta<br>Çocuk nüfus oranı: orta<br>Sosyoekonomik gelişmişlik: düşük"}, "geometry": {"type": "LineString", "coordinates": [[30.3750675, 39.7252339], [30.3750756, 39.7250588], [30.3751529, 39.724621], [30.3752627, 39.7243021], [30.3754619, 39.7240144], [30.3757749, 39.7236486], [30.3760514, 39.7233734], [30.3795111, 39.7200619], [30.3807267, 39.7188298], [30.3812064, 39.7183014], [30.3816942, 39.7175571], [30.3826008, 39.7160685], [30.3834099, 39.7153712], [30.3840644, 39.7149459], [30.3846376, 39.7145925], [30.3851783, 39.7143892], [30.3861947, 39.7140264], [30.3865647, 39.7139389], [30.3878859, 39.7136762], [30.388264, 39.7136386], [30.3885323, 39.7136386], [30.3896707, 39.7137669], [30.3901789, 39.713795], [30.3904228, 39.7137606], [30.3927523, 39.7131539], [30.3943012, 39.7127536], [30.3961795, 39.7121907], [30.3971837, 39.7117903], [30.3976146, 39.7115214], [30.3985106, 39.710929], [30.4015117, 39.7089652]]}, "bbox": [30.3750675, 39.7089652, 30.4015117, 39.7252339]}, {"id": "356", "type": "Feature", "properties": {"name": null, "_mahalle_str": "Gökçekısık Mahallesi", "_hvi_str": "%100", "_aciklama_str": "Sıcaklık: çok yüksek<br>Ağaç örtüsü: yüksek<br>Hastaneye uzaklık: çok uzak<br>Yeşil alana uzaklık: çok uzak<br>Yapılaşma yoğunluğu: çok seyrek<br>Nüfus yoğunluğu: seyrek<br>Yaşlı nüfus oranı: orta<br>Çocuk nüfus oranı: orta<br>Sosyoekonomik gelişmişlik: düşük"}, "geometry": {"type": "LineString", "coordinates": [[30.3820136, 39.6991009], [30.3814248, 39.6970838], [30.3814021, 39.6967745], [30.3814417, 39.6965349], [30.3820815, 39.6949012], [30.3824949, 39.6939645], [30.3832083, 39.6921477], [30.3834065, 39.6914593], [30.383933, 39.6898211], [30.38472, 39.6872766], [30.3851787, 39.6863441], [30.3853485, 39.6860609], [30.3855071, 39.6858736], [30.3857335, 39.6856993], [30.3862658, 39.6853725], [30.3871604, 39.6849803], [30.3911351, 39.6831502], [30.3962626, 39.6807924], [30.3968809, 39.6804823], [30.3972286, 39.6802401], [30.3975102, 39.6799895], [30.3998506, 39.6774107], [30.4001487, 39.6770326], [30.4016833, 39.674373], [30.4019869, 39.6738164], [30.4021414, 39.6734383], [30.4022353, 39.6730899], [30.4022629, 39.6725758], [30.4022905, 39.671896], [30.4022573, 39.6712799], [30.4022518, 39.6706213], [30.402296, 39.6657349], [30.402296, 39.6651698], [30.4023898, 39.6628327], [30.4024174, 39.6615366], [30.4024009, 39.6613114], [30.4022132, 39.660691], [30.4020862, 39.660079], [30.4020366, 39.6594374], [30.4022684, 39.6562459], [30.4022849, 39.6556806], [30.4022629, 39.6553577], [30.4021856, 39.6551239], [30.4020531, 39.6549072], [30.401602, 39.6543747], [30.4007867, 39.6533428], [30.4004843, 39.6530374], [30.4000607, 39.6527366], [30.3997717, 39.6525656], [30.3993244, 39.6522649], [30.398649, 39.6518188], [30.3984852, 39.6517254], [30.3983288, 39.6516514], [30.3981491, 39.6515679], [30.3979063, 39.6514551], [30.3974474, 39.6512868], [30.3970613, 39.6512139], [30.396501, 39.651172], [30.3961189, 39.6511818], [30.3956481, 39.65127], [30.3953494, 39.651371], [30.3951528, 39.6514607], [30.3926906, 39.6531938], [30.3924283, 39.6533284], [30.3917436, 39.653592], [30.3915664, 39.6536422], [30.3913986, 39.6536458], [30.3912261, 39.6536171], [30.3908702, 39.65346], [30.39041, 39.653201], [30.3894756, 39.652835], [30.3882855, 39.6523688]]}, "bbox": [30.3814021, 39.651172, 30.4024174, 39.6991009]}, {"id": "358", "type": "Feature", "properties": {"name": null, "_mahalle_str": "Kızılinler Mahallesi", "_hvi_str": "%71", "_aciklama_str": "Sıcaklık: yüksek<br>Ağaç örtüsü: yüksek<br>Hastaneye uzaklık: çok uzak<br>Yeşil alana uzaklık: çok uzak<br>Yapılaşma yoğunluğu: çok seyrek<br>Nüfus yoğunluğu: seyrek<br>Yaşlı nüfus oranı: orta<br>Çocuk nüfus oranı: orta<br>Sosyoekonomik gelişmişlik: düşük"}, "geometry": {"type": "LineString", "coordinates": [[30.4027481, 39.7078648], [30.4046914, 39.7090197], [30.4059797, 39.7097284], [30.4063381, 39.7100352], [30.4070287, 39.7107875], [30.4074063, 39.7111515], [30.4075634, 39.7113748], [30.4081954, 39.7120184], [30.408259, 39.712126], [30.4081992, 39.7121687]]}, "bbox": [30.4027481, 39.7078648, 30.408259, 39.7121687]}, {"id": "361", "type": "Feature", "properties": {"name": null, "_mahalle_str": "Yeniakçayır Mahallesi", "_hvi_str": "%73", "_aciklama_str": "Sıcaklık: orta<br>Ağaç örtüsü: çok yüksek<br>Hastaneye uzaklık: çok uzak<br>Yeşil alana uzaklık: çok uzak<br>Yapılaşma yoğunluğu: çok seyrek<br>Nüfus yoğunluğu: seyrek<br>Yaşlı nüfus oranı: orta<br>Çocuk nüfus oranı: orta<br>Sosyoekonomik gelişmişlik: düşük"}, "geometry": {"type": "LineString", "coordinates": [[30.379651, 39.7307665], [30.3799039, 39.7308242], [30.3802504, 39.7309232], [30.3805524, 39.7310514], [30.3809042, 39.7311288], [30.3811144, 39.7312222], [30.3812212, 39.7313351], [30.3814171, 39.7314849], [30.3815359, 39.7316345], [30.3816574, 39.7318464], [30.3817977, 39.7321558], [30.3820361, 39.732514]]}, "bbox": [30.379651, 39.7307665, 30.3820361, 39.732514]}, {"id": "362", "type": "Feature", "properties": {"name": null, "_mahalle_str": "Yeniakçayır Mahallesi", "_hvi_str": "%75", "_aciklama_str": "Sıcaklık: yüksek<br>Ağaç örtüsü: çok yüksek<br>Hastaneye uzaklık: çok uzak<br>Yeşil alana uzaklık: çok uzak<br>Yapılaşma yoğunluğu: çok seyrek<br>Nüfus yoğunluğu: seyrek<br>Yaşlı nüfus oranı: orta<br>Çocuk nüfus oranı: orta<br>Sosyoekonomik gelişmişlik: düşük"}, "geometry": {"type": "LineString", "coordinates": [[30.3809343, 39.7301733], [30.3807968, 39.7302633], [30.3806254, 39.7303031], [30.3805219, 39.7302902], [30.3803975, 39.7302779], [30.3802767, 39.7302619], [30.3801592, 39.7302336], [30.3800574, 39.7301963], [30.3799673, 39.7301392], [30.3798548, 39.7300571], [30.3797949, 39.7300121], [30.3797375, 39.7300065], [30.3796824, 39.730027], [30.3795989, 39.7300659], [30.379551, 39.7300867], [30.3795165, 39.7301301], [30.379496, 39.7301741], [30.3794914, 39.7302357], [30.3795249, 39.7303082], [30.3797233, 39.7305729], [30.3797418, 39.7306631], [30.379709, 39.7307097], [30.379651, 39.7307665], [30.3794336, 39.7309686]]}, "bbox": [30.3794336, 39.7300065, 30.3809343, 39.7309686]}, {"id": "365", "type": "Feature", "properties": {"name": null, "_mahalle_str": "Yeniakçayır Mahallesi", "_hvi_str": "%74", "_aciklama_str": "Sıcaklık: orta<br>Ağaç örtüsü: çok yüksek<br>Hastaneye uzaklık: çok uzak<br>Yeşil alana uzaklık: çok uzak<br>Yapılaşma yoğunluğu: çok seyrek<br>Nüfus yoğunluğu: seyrek<br>Yaşlı nüfus oranı: orta<br>Çocuk nüfus oranı: orta<br>Sosyoekonomik gelişmişlik: düşük"}, "geometry": {"type": "LineString", "coordinates": [[30.3817977, 39.7321558], [30.3815967, 39.7321859], [30.3814677, 39.7321993], [30.3813523, 39.7321941], [30.3812369, 39.7321719], [30.3811473, 39.7321412], [30.3810759, 39.7321073], [30.3810011, 39.7320551], [30.3808947, 39.7319913], [30.3807821, 39.7319764], [30.3806874, 39.7319784]]}, "bbox": [30.3806874, 39.7319764, 30.3817977, 39.7321993]}, {"id": "366", "type": "Feature", "properties": {"name": null, "_mahalle_str": "Yeniakçayır Mahallesi", "_hvi_str": "%74", "_aciklama_str": "Sıcaklık: yüksek<br>Ağaç örtüsü: çok yüksek<br>Hastaneye uzaklık: çok uzak<br>Yeşil alana uzaklık: çok uzak<br>Yapılaşma yoğunluğu: çok seyrek<br>Nüfus yoğunluğu: seyrek<br>Yaşlı nüfus oranı: orta<br>Çocuk nüfus oranı: orta<br>Sosyoekonomik gelişmişlik: düşük"}, "geometry": {"type": "LineString", "coordinates": [[30.3806254, 39.7303031], [30.3806949, 39.7304057], [30.3807199, 39.7304827], [30.380762, 39.7305788], [30.380811, 39.7306433], [30.3808632, 39.7306893], [30.3809177, 39.7307277], [30.3810183, 39.7307676], [30.3810601, 39.7309599], [30.3810844, 39.7310751], [30.3811144, 39.7312222]]}, "bbox": [30.3806254, 39.7303031, 30.3811144, 39.7312222]}, {"id": "367", "type": "Feature", "properties": {"name": "Keskin yolu", "_mahalle_str": "Keskin Mahallesi", "_hvi_str": "%77", "_aciklama_str": "Sıcaklık: çok yüksek<br>Ağaç örtüsü: çok yüksek<br>Hastaneye uzaklık: çok uzak<br>Yeşil alana uzaklık: çok uzak<br>Yapılaşma yoğunluğu: çok seyrek<br>Nüfus yoğunluğu: seyrek<br>Yaşlı nüfus oranı: orta<br>Çocuk nüfus oranı: orta<br>Sosyoekonomik gelişmişlik: düşük"}, "geometry": {"type": "LineString", "coordinates": [[30.4052883, 39.8566758], [30.4048853, 39.857567], [30.404789, 39.8577045], [30.4046662, 39.8578797], [30.404434, 39.8581555], [30.4040529, 39.8585153], [30.4033651, 39.8590433], [30.4018398, 39.8601819], [30.4017748, 39.8602304], [30.4009907, 39.8608391], [30.4007979, 39.8609635], [30.4005657, 39.8610846], [30.4003467, 39.8611249], [30.4001802, 39.8611484], [30.3999611, 39.8611518], [30.3996457, 39.8610913], [30.3993916, 39.8610072], [30.3986994, 39.8606945], [30.3984103, 39.8605734], [30.3977376, 39.8604599], [30.3967622, 39.8602169], [30.3965483, 39.8601315], [30.3963258, 39.8600198], [30.3959808, 39.8597466], [30.395811, 39.8596289], [30.3957311, 39.8595854], [30.3956413, 39.8595364], [30.3949778, 39.8592874], [30.394902, 39.859259]]}, "bbox": [30.394902, 39.8566758, 30.4052883, 39.8611518]}, {"id": "368", "type": "Feature", "properties": {"name": null, "_mahalle_str": "Keskin Mahallesi", "_hvi_str": "%76", "_aciklama_str": "Sıcaklık: yüksek<br>Ağaç örtüsü: yüksek<br>Hastaneye uzaklık: çok uzak<br>Yeşil alana uzaklık: çok uzak<br>Yapılaşma yoğunluğu: çok seyrek<br>Nüfus yoğunluğu: seyrek<br>Yaşlı nüfus oranı: orta<br>Çocuk nüfus oranı: orta<br>Sosyoekonomik gelişmişlik: düşük"}, "geometry": {"type": "LineString", "coordinates": [[30.3875035, 39.8565111], [30.3878019, 39.8569952], [30.3881894, 39.8570879], [30.3885164, 39.8571534], [30.3889828, 39.8571035]]}, "bbox": [30.3875035, 39.8565111, 30.3889828, 39.8571534]}, {"id": "369", "type": "Feature", "properties": {"name": null, "_mahalle_str": "Keskin Mahallesi", "_hvi_str": "%76", "_aciklama_str": "Sıcaklık: çok yüksek<br>Ağaç örtüsü: çok yüksek<br>Hastaneye uzaklık: çok uzak<br>Yeşil alana uzaklık: çok uzak<br>Yapılaşma yoğunluğu: çok seyrek<br>Nüfus yoğunluğu: seyrek<br>Yaşlı nüfus oranı: orta<br>Çocuk nüfus oranı: orta<br>Sosyoekonomik gelişmişlik: düşük"}, "geometry": {"type": "LineString", "coordinates": [[30.3984103, 39.8605734], [30.3983928, 39.8601631], [30.3982482, 39.8597562], [30.3980383, 39.8595363], [30.397924, 39.8594166], [30.3976787, 39.859198], [30.3973633, 39.8590231], [30.3969865, 39.8590601], [30.3966798, 39.8591341], [30.3963425, 39.8592821], [30.3960183, 39.8594838], [30.3957311, 39.8595854]]}, "bbox": [30.3957311, 39.8590231, 30.3984103, 39.8605734]}, {"id": "371", "type": "Feature", "properties": {"name": null, "_mahalle_str": "Keskin Mahallesi", "_hvi_str": "%77", "_aciklama_str": "Sıcaklık: yüksek<br>Ağaç örtüsü: yüksek<br>Hastaneye uzaklık: çok uzak<br>Yeşil alana uzaklık: çok uzak<br>Yapılaşma yoğunluğu: çok seyrek<br>Nüfus yoğunluğu: seyrek<br>Yaşlı nüfus oranı: orta<br>Çocuk nüfus oranı: orta<br>Sosyoekonomik gelişmişlik: düşük"}, "geometry": {"type": "LineString", "coordinates": [[30.393094, 39.8594849], [30.3930813, 39.859383], [30.3930682, 39.8593158], [30.3930025, 39.8592653], [30.3928448, 39.8591813], [30.3927878, 39.8591342], [30.3928053, 39.8590703], [30.3927966, 39.8589828], [30.3926564, 39.8588584], [30.3925041, 39.8588105], [30.3923179, 39.8587096], [30.3921482, 39.858676], [30.3918445, 39.8586361], [30.391732, 39.8586213], [30.3916115, 39.8586255], [30.391513, 39.858676]]}, "bbox": [30.391513, 39.8586213, 30.393094, 39.8594849]}, {"id": "372", "type": "Feature", "properties": {"name": null, "_mahalle_str": "Keskin Mahallesi", "_hvi_str": "%82", "_aciklama_str": "Sıcaklık: çok yüksek<br>Ağaç örtüsü: orta<br>Hastaneye uzaklık: çok uzak<br>Yeşil alana uzaklık: çok uzak<br>Yapılaşma yoğunluğu: çok seyrek<br>Nüfus yoğunluğu: seyrek<br>Yaşlı nüfus oranı: orta<br>Çocuk nüfus oranı: orta<br>Sosyoekonomik gelişmişlik: düşük"}, "geometry": {"type": "LineString", "coordinates": [[30.3842215, 39.8575294], [30.3858917, 39.8582178], [30.3872881, 39.8585751], [30.387781, 39.8586854], [30.3878426, 39.8587327], [30.3878289, 39.8588063], [30.3877673, 39.8592109], [30.3877947, 39.8592634], [30.3878494, 39.8593002], [30.3881985, 39.8593265], [30.3884792, 39.8594053], [30.3887188, 39.8594894], [30.38893, 39.8596172], [30.3890747, 39.8597048], [30.3890952, 39.8598099], [30.3890268, 39.8604404], [30.3890747, 39.8605945]]}, "bbox": [30.3842215, 39.8575294, 30.3890952, 39.8605945]}, {"id": "373", "type": "Feature", "properties": {"name": null, "_mahalle_str": "Keskin Mahallesi", "_hvi_str": "%80", "_aciklama_str": "Sıcaklık: çok yüksek<br>Ağaç örtüsü: düşük<br>Hastaneye uzaklık: çok uzak<br>Yeşil alana uzaklık: çok uzak<br>Yapılaşma yoğunluğu: çok seyrek<br>Nüfus yoğunluğu: seyrek<br>Yaşlı nüfus oranı: orta<br>Çocuk nüfus oranı: orta<br>Sosyoekonomik gelişmişlik: düşük"}, "geometry": {"type": "LineString", "coordinates": [[30.3858917, 39.8582178], [30.3863537, 39.8574976]]}, "bbox": [30.3858917, 39.8574976, 30.3863537, 39.8582178]}, {"id": "374", "type": "Feature", "properties": {"name": null, "_mahalle_str": "Keskin Mahallesi", "_hvi_str": "%78", "_aciklama_str": "Sıcaklık: yüksek<br>Ağaç örtüsü: düşük<br>Hastaneye uzaklık: çok uzak<br>Yeşil alana uzaklık: çok uzak<br>Yapılaşma yoğunluğu: çok seyrek<br>Nüfus yoğunluğu: seyrek<br>Yaşlı nüfus oranı: orta<br>Çocuk nüfus oranı: orta<br>Sosyoekonomik gelişmişlik: düşük"}, "geometry": {"type": "LineString", "coordinates": [[30.390352, 39.8577217], [30.3903038, 39.857446], [30.3903038, 39.8570626]]}, "bbox": [30.3903038, 39.8570626, 30.390352, 39.8577217]}, {"id": "375", "type": "Feature", "properties": {"name": null, "_mahalle_str": "Keskin Mahallesi", "_hvi_str": "%82", "_aciklama_str": "Sıcaklık: çok yüksek<br>Ağaç örtüsü: düşük<br>Hastaneye uzaklık: çok uzak<br>Yeşil alana uzaklık: çok uzak<br>Yapılaşma yoğunluğu: çok seyrek<br>Nüfus yoğunluğu: seyrek<br>Yaşlı nüfus oranı: orta<br>Çocuk nüfus oranı: orta<br>Sosyoekonomik gelişmişlik: düşük"}, "geometry": {"type": "LineString", "coordinates": [[30.3893131, 39.8590579], [30.3896855, 39.8591117], [30.3898498, 39.8591052]]}, "bbox": [30.3893131, 39.8590579, 30.3898498, 39.8591117]}, {"id": "376", "type": "Feature", "properties": {"name": null, "_mahalle_str": "Keskin Mahallesi", "_hvi_str": "%80", "_aciklama_str": "Sıcaklık: çok yüksek<br>Ağaç örtüsü: yüksek<br>Hastaneye uzaklık: çok uzak<br>Yeşil alana uzaklık: çok uzak<br>Yapılaşma yoğunluğu: çok seyrek<br>Nüfus yoğunluğu: seyrek<br>Yaşlı nüfus oranı: orta<br>Çocuk nüfus oranı: orta<br>Sosyoekonomik gelişmişlik: düşük"}, "geometry": {"type": "LineString", "coordinates": [[30.387781, 39.8586854], [30.3878015, 39.8585436], [30.3881116, 39.8579979]]}, "bbox": [30.387781, 39.8579979, 30.3881116, 39.8586854]}, {"id": "377", "type": "Feature", "properties": {"name": null, "_mahalle_str": "Keskin Mahallesi", "_hvi_str": "%80", "_aciklama_str": "Sıcaklık: çok yüksek<br>Ağaç örtüsü: orta<br>Hastaneye uzaklık: çok uzak<br>Yeşil alana uzaklık: çok uzak<br>Yapılaşma yoğunluğu: çok seyrek<br>Nüfus yoğunluğu: seyrek<br>Yaşlı nüfus oranı: orta<br>Çocuk nüfus oranı: orta<br>Sosyoekonomik gelişmişlik: düşük"}, "geometry": {"type": "LineString", "coordinates": [[30.391513, 39.858676], [30.3913706, 39.858945], [30.3912567, 39.8591024]]}, "bbox": [30.3912567, 39.858676, 30.391513, 39.8591024]}, {"id": "378", "type": "Feature", "properties": {"name": null, "_mahalle_str": "Keskin Mahallesi", "_hvi_str": "%79", "_aciklama_str": "Sıcaklık: yüksek<br>Ağaç örtüsü: çok düşük<br>Hastaneye uzaklık: çok uzak<br>Yeşil alana uzaklık: çok uzak<br>Yapılaşma yoğunluğu: çok seyrek<br>Nüfus yoğunluğu: seyrek<br>Yaşlı nüfus oranı: orta<br>Çocuk nüfus oranı: orta<br>Sosyoekonomik gelişmişlik: düşük"}, "geometry": {"type": "LineString", "coordinates": [[30.3900399, 39.8583901], [30.3897387, 39.8583178], [30.3894806, 39.8584182]]}, "bbox": [30.3894806, 39.8583178, 30.3900399, 39.8584182]}, {"id": "379", "type": "Feature", "properties": {"name": null, "_mahalle_str": "Keskin Mahallesi", "_hvi_str": "%78", "_aciklama_str": "Sıcaklık: yüksek<br>Ağaç örtüsü: orta<br>Hastaneye uzaklık: çok uzak<br>Yeşil alana uzaklık: çok uzak<br>Yapılaşma yoğunluğu: çok seyrek<br>Nüfus yoğunluğu: seyrek<br>Yaşlı nüfus oranı: orta<br>Çocuk nüfus oranı: orta<br>Sosyoekonomik gelişmişlik: düşük"}, "geometry": {"type": "LineString", "coordinates": [[30.3888588, 39.8578023], [30.3883628, 39.8579288], [30.3881116, 39.8579979]]}, "bbox": [30.3881116, 39.8578023, 30.3888588, 39.8579979]}, {"id": "380", "type": "Feature", "properties": {"name": null, "_mahalle_str": "Keskin Mahallesi", "_hvi_str": "%74", "_aciklama_str": "Sıcaklık: yüksek<br>Ağaç örtüsü: çok yüksek<br>Hastaneye uzaklık: çok uzak<br>Yeşil alana uzaklık: çok uzak<br>Yapılaşma yoğunluğu: çok seyrek<br>Nüfus yoğunluğu: seyrek<br>Yaşlı nüfus oranı: orta<br>Çocuk nüfus oranı: orta<br>Sosyoekonomik gelişmişlik: düşük"}, "geometry": {"type": "LineString", "coordinates": [[30.3947103, 39.8592127], [30.394442, 39.8592211], [30.3939984, 39.8593262]]}, "bbox": [30.3939984, 39.8592127, 30.3947103, 39.8593262]}, {"id": "381", "type": "Feature", "properties": {"name": null, "_mahalle_str": "Keskin Mahallesi", "_hvi_str": "%79", "_aciklama_str": "Sıcaklık: yüksek<br>Ağaç örtüsü: orta<br>Hastaneye uzaklık: çok uzak<br>Yeşil alana uzaklık: çok uzak<br>Yapılaşma yoğunluğu: çok seyrek<br>Nüfus yoğunluğu: seyrek<br>Yaşlı nüfus oranı: orta<br>Çocuk nüfus oranı: orta<br>Sosyoekonomik gelişmişlik: düşük"}, "geometry": {"type": "LineString", "coordinates": [[30.3939984, 39.8593262], [30.3938122, 39.8594481], [30.3936534, 39.8595448], [30.3935165, 39.8596037], [30.3934618, 39.8596037], [30.3934125, 39.8596037], [30.3932537, 39.859549], [30.393094, 39.8594849], [30.3930127, 39.8594523], [30.3927499, 39.8594103], [30.3923994, 39.8593977], [30.392321, 39.8594184], [30.3922406, 39.8594397], [30.3918737, 39.8596331], [30.3917477, 39.8596709], [30.3913644, 39.8596331], [30.3910139, 39.8596121], [30.3908411, 39.8595702], [30.3908058, 39.8595616], [30.3906142, 39.8594733], [30.3905156, 39.8594019], [30.3904903, 39.8593572], [30.3904609, 39.8593052], [30.3900431, 39.8588815], [30.3899242, 39.8588302], [30.3895956, 39.8585696], [30.3894806, 39.8584182], [30.3889734, 39.8581929]]}, "bbox": [30.3889734, 39.8581929, 30.3939984, 39.8596709]}, {"id": "383", "type": "Feature", "properties": {"name": null, "_mahalle_str": "Keskin Mahallesi", "_hvi_str": "%79", "_aciklama_str": "Sıcaklık: çok yüksek<br>Ağaç örtüsü: çok yüksek<br>Hastaneye uzaklık: çok uzak<br>Yeşil alana uzaklık: çok uzak<br>Yapılaşma yoğunluğu: çok seyrek<br>Nüfus yoğunluğu: seyrek<br>Yaşlı nüfus oranı: orta<br>Çocuk nüfus oranı: orta<br>Sosyoekonomik gelişmişlik: düşük"}, "geometry": {"type": "LineString", "coordinates": [[30.3915683, 39.8605963], [30.3916876, 39.8602652], [30.3917182, 39.8600668], [30.3918015, 39.8597809]]}, "bbox": [30.3915683, 39.8597809, 30.3918015, 39.8605963]}, {"id": "384", "type": "Feature", "properties": {"name": null, "_mahalle_str": "Keskin Mahallesi", "_hvi_str": "%82", "_aciklama_str": "Sıcaklık: çok yüksek<br>Ağaç örtüsü: orta<br>Hastaneye uzaklık: çok uzak<br>Yeşil alana uzaklık: çok uzak<br>Yapılaşma yoğunluğu: çok seyrek<br>Nüfus yoğunluğu: seyrek<br>Yaşlı nüfus oranı: orta<br>Çocuk nüfus oranı: orta<br>Sosyoekonomik gelişmişlik: düşük"}, "geometry": {"type": "LineString", "coordinates": [[30.391168, 39.8590291], [30.3910217, 39.8591218], [30.390715, 39.8592328], [30.3904903, 39.8593572]]}, "bbox": [30.3904903, 39.8590291, 30.391168, 39.8593572]}, {"id": "386", "type": "Feature", "properties": {"name": null, "_mahalle_str": "Keskin Mahallesi", "_hvi_str": "%80", "_aciklama_str": "Sıcaklık: çok yüksek<br>Ağaç örtüsü: yüksek<br>Hastaneye uzaklık: çok uzak<br>Yeşil alana uzaklık: çok uzak<br>Yapılaşma yoğunluğu: çok seyrek<br>Nüfus yoğunluğu: seyrek<br>Yaşlı nüfus oranı: orta<br>Çocuk nüfus oranı: orta<br>Sosyoekonomik gelişmişlik: düşük"}, "geometry": {"type": "LineString", "coordinates": [[30.392774, 39.8607629], [30.3924849, 39.8605308], [30.3922396, 39.8601979], [30.3918015, 39.8597809], [30.3917477, 39.8596709]]}, "bbox": [30.3917477, 39.8596709, 30.392774, 39.8607629]}, {"id": "388", "type": "Feature", "properties": {"name": null, "_mahalle_str": "Keskin Mahallesi", "_hvi_str": "%81", "_aciklama_str": "Sıcaklık: çok yüksek<br>Ağaç örtüsü: orta<br>Hastaneye uzaklık: çok uzak<br>Yeşil alana uzaklık: çok uzak<br>Yapılaşma yoğunluğu: çok seyrek<br>Nüfus yoğunluğu: seyrek<br>Yaşlı nüfus oranı: orta<br>Çocuk nüfus oranı: orta<br>Sosyoekonomik gelişmişlik: düşük"}, "geometry": {"type": "LineString", "coordinates": [[30.3895956, 39.8585696], [30.3894051, 39.8587922], [30.3893131, 39.8590579], [30.3891948, 39.8593202], [30.38893, 39.8596172]]}, "bbox": [30.38893, 39.8585696, 30.3895956, 39.8596172]}, {"id": "389", "type": "Feature", "properties": {"name": null, "_mahalle_str": "Keskin Mahallesi", "_hvi_str": "%79", "_aciklama_str": "Sıcaklık: yüksek<br>Ağaç örtüsü: orta<br>Hastaneye uzaklık: çok uzak<br>Yeşil alana uzaklık: çok uzak<br>Yapılaşma yoğunluğu: çok seyrek<br>Nüfus yoğunluğu: seyrek<br>Yaşlı nüfus oranı: orta<br>Çocuk nüfus oranı: orta<br>Sosyoekonomik gelişmişlik: düşük"}, "geometry": {"type": "LineString", "coordinates": [[30.3897332, 39.8577428], [30.3897387, 39.8579698], [30.389777, 39.8580412], [30.3897825, 39.8581757], [30.3897387, 39.8583178]]}, "bbox": [30.3897332, 39.8577428, 30.3897825, 39.8583178]}, {"id": "391", "type": "Feature", "properties": {"name": null, "_mahalle_str": "Keskin Mahallesi", "_hvi_str": "%73", "_aciklama_str": "Sıcaklık: yüksek<br>Ağaç örtüsü: çok yüksek<br>Hastaneye uzaklık: çok uzak<br>Yeşil alana uzaklık: çok uzak<br>Yapılaşma yoğunluğu: çok seyrek<br>Nüfus yoğunluğu: seyrek<br>Yaşlı nüfus oranı: orta<br>Çocuk nüfus oranı: orta<br>Sosyoekonomik gelişmişlik: düşük"}, "geometry": {"type": "LineString", "coordinates": [[30.3952624, 39.8611328], [30.3940576, 39.8603997], [30.3936765, 39.8599491], [30.3935494, 39.8597641], [30.3934618, 39.8596037]]}, "bbox": [30.3934618, 39.8596037, 30.3952624, 39.8611328]}, {"id": "392", "type": "Feature", "properties": {"name": null, "_mahalle_str": "Keskin Mahallesi", "_hvi_str": "%80", "_aciklama_str": "Sıcaklık: çok yüksek<br>Ağaç örtüsü: yüksek<br>Hastaneye uzaklık: çok uzak<br>Yeşil alana uzaklık: çok uzak<br>Yapılaşma yoğunluğu: çok seyrek<br>Nüfus yoğunluğu: seyrek<br>Yaşlı nüfus oranı: orta<br>Çocuk nüfus oranı: orta<br>Sosyoekonomik gelişmişlik: düşük"}, "geometry": {"type": "LineString", "coordinates": [[30.3883022, 39.8592017], [30.3884555, 39.8589259], [30.3885256, 39.8586737], [30.3885914, 39.8585156], [30.3887315, 39.858144]]}, "bbox": [30.3883022, 39.858144, 30.3887315, 39.8592017]}, {"id": "396", "type": "Feature", "properties": {"name": null, "_mahalle_str": "Keskin Mahallesi", "_hvi_str": "%77", "_aciklama_str": "Sıcaklık: yüksek<br>Ağaç örtüsü: orta<br>Hastaneye uzaklık: çok uzak<br>Yeşil alana uzaklık: çok uzak<br>Yapılaşma yoğunluğu: çok seyrek<br>Nüfus yoğunluğu: seyrek<br>Yaşlı nüfus oranı: orta<br>Çocuk nüfus oranı: orta<br>Sosyoekonomik gelişmişlik: düşük"}, "geometry": {"type": "LineString", "coordinates": [[30.3901439, 39.8577091], [30.3901111, 39.8578394], [30.3901494, 39.8579992], [30.3901494, 39.8581926], [30.3900399, 39.8583901], [30.3899906, 39.8586045], [30.3899242, 39.8588302]]}, "bbox": [30.3899242, 39.8577091, 30.3901494, 39.8588302]}, {"id": "398", "type": "Feature", "properties": {"name": null, "_mahalle_str": "Keskin Mahallesi", "_hvi_str": "%78", "_aciklama_str": "Sıcaklık: yüksek<br>Ağaç örtüsü: yüksek<br>Hastaneye uzaklık: çok uzak<br>Yeşil alana uzaklık: çok uzak<br>Yapılaşma yoğunluğu: çok seyrek<br>Nüfus yoğunluğu: seyrek<br>Yaşlı nüfus oranı: orta<br>Çocuk nüfus oranı: orta<br>Sosyoekonomik gelişmişlik: düşük"}, "geometry": {"type": "LineString", "coordinates": [[30.392321, 39.8594184], [30.3917649, 39.8592687], [30.3913103, 39.8591468], [30.3912567, 39.8591024], [30.391168, 39.8590291], [30.3907473, 39.85876], [30.3903684, 39.8585415], [30.3900399, 39.8583901]]}, "bbox": [30.3900399, 39.8583901, 30.392321, 39.8594184]}, {"id": "399", "type": "Feature", "properties": {"name": null, "_mahalle_str": "Keskin Mahallesi", "_hvi_str": "%83", "_aciklama_str": "Sıcaklık: çok yüksek<br>Ağaç örtüsü: çok düşük<br>Hastaneye uzaklık: çok uzak<br>Yeşil alana uzaklık: çok uzak<br>Yapılaşma yoğunluğu: çok seyrek<br>Nüfus yoğunluğu: seyrek<br>Yaşlı nüfus oranı: orta<br>Çocuk nüfus oranı: orta<br>Sosyoekonomik gelişmişlik: düşük"}, "geometry": {"type": "LineString", "coordinates": [[30.3901981, 39.8607999], [30.3903558, 39.8605678], [30.3904083, 39.8603055], [30.3904409, 39.8602505], [30.390496, 39.8601576], [30.3905704, 39.8600298], [30.3906537, 39.859902], [30.3908411, 39.8595702]]}, "bbox": [30.3901981, 39.8595702, 30.3908411, 39.8607999]}, {"id": "400", "type": "Feature", "properties": {"name": null, "_mahalle_str": "Keskin Mahallesi", "_hvi_str": "%77", "_aciklama_str": "Sıcaklık: yüksek<br>Ağaç örtüsü: orta<br>Hastaneye uzaklık: çok uzak<br>Yeşil alana uzaklık: çok uzak<br>Yapılaşma yoğunluğu: çok seyrek<br>Nüfus yoğunluğu: seyrek<br>Yaşlı nüfus oranı: orta<br>Çocuk nüfus oranı: orta<br>Sosyoekonomik gelişmişlik: düşük"}, "geometry": {"type": "LineString", "coordinates": [[30.3888777, 39.8575694], [30.3892185, 39.8577133], [30.3894704, 39.8577428], [30.3897332, 39.8577428], [30.3897442, 39.8576461], [30.3900892, 39.8576377], [30.3901439, 39.8577091], [30.390352, 39.8577217]]}, "bbox": [30.3888777, 39.8575694, 30.390352, 39.8577428]}, {"id": "402", "type": "Feature", "properties": {"name": null, "_mahalle_str": "Keskin Mahallesi", "_hvi_str": "%75", "_aciklama_str": "Sıcaklık: çok yüksek<br>Ağaç örtüsü: çok yüksek<br>Hastaneye uzaklık: çok uzak<br>Yeşil alana uzaklık: çok uzak<br>Yapılaşma yoğunluğu: çok seyrek<br>Nüfus yoğunluğu: seyrek<br>Yaşlı nüfus oranı: orta<br>Çocuk nüfus oranı: orta<br>Sosyoekonomik gelişmişlik: düşük"}, "geometry": {"type": "LineString", "coordinates": [[30.3887655, 39.8558455], [30.3889762, 39.8567667], [30.3890014, 39.8569175], [30.3889828, 39.8571035]]}, "bbox": [30.3887655, 39.8558455, 30.3890014, 39.8571035]}, {"id": "403", "type": "Feature", "properties": {"name": null, "_mahalle_str": "Keskin Mahallesi", "_hvi_str": "%83", "_aciklama_str": "Sıcaklık: çok yüksek<br>Ağaç örtüsü: orta<br>Hastaneye uzaklık: çok uzak<br>Yeşil alana uzaklık: çok uzak<br>Yapılaşma yoğunluğu: çok seyrek<br>Nüfus yoğunluğu: seyrek<br>Yaşlı nüfus oranı: orta<br>Çocuk nüfus oranı: orta<br>Sosyoekonomik gelişmişlik: düşük"}, "geometry": {"type": "LineString", "coordinates": [[30.3894182, 39.8605409], [30.3894708, 39.860477], [30.3897162, 39.8599121], [30.3898432, 39.8594816], [30.3899659, 39.8592933], [30.3899571, 39.8592496], [30.3898832, 39.8591705], [30.3898498, 39.8591052], [30.3900431, 39.8588815]]}, "bbox": [30.3894182, 39.8588815, 30.3900431, 39.8605409]}, {"id": "404", "type": "Feature", "properties": {"name": null, "_mahalle_str": "Keskin Mahallesi", "_hvi_str": "%77", "_aciklama_str": "Sıcaklık: yüksek<br>Ağaç örtüsü: yüksek<br>Hastaneye uzaklık: çok uzak<br>Yeşil alana uzaklık: çok uzak<br>Yapılaşma yoğunluğu: çok seyrek<br>Nüfus yoğunluğu: seyrek<br>Yaşlı nüfus oranı: orta<br>Çocuk nüfus oranı: orta<br>Sosyoekonomik gelişmişlik: düşük"}, "geometry": {"type": "LineString", "coordinates": [[30.3912063, 39.8582228], [30.3911099, 39.8584481], [30.3909697, 39.8586499], [30.3908558, 39.8587205], [30.3907473, 39.85876], [30.3906893, 39.8587811], [30.3905097, 39.8588887], [30.3904133, 39.8589055], [30.3900431, 39.8588815]]}, "bbox": [30.3900431, 39.8582228, 30.3912063, 39.8589055]}, {"id": "405", "type": "Feature", "properties": {"name": null, "_mahalle_str": "Keskin Mahallesi", "_hvi_str": "%75", "_aciklama_str": "Sıcaklık: yüksek<br>Ağaç örtüsü: çok yüksek<br>Hastaneye uzaklık: çok uzak<br>Yeşil alana uzaklık: çok uzak<br>Yapılaşma yoğunluğu: çok seyrek<br>Nüfus yoğunluğu: seyrek<br>Yaşlı nüfus oranı: orta<br>Çocuk nüfus oranı: orta<br>Sosyoekonomik gelişmişlik: düşük"}, "geometry": {"type": "LineString", "coordinates": [[30.390352, 39.8577217], [30.3904966, 39.8577856], [30.3905448, 39.8578798], [30.3906061, 39.8579672], [30.3907551, 39.8580648], [30.3912063, 39.8582228], [30.391421, 39.8583136], [30.3916619, 39.8584448], [30.3918445, 39.8586361]]}, "bbox": [30.390352, 39.8577217, 30.3918445, 39.8586361]}, {"id": "422", "type": "Feature", "properties": {"name": null, "_mahalle_str": "Cumhuriyet Mahallesi", "_hvi_str": "%79", "_aciklama_str": "Sıcaklık: yüksek<br>Ağaç örtüsü: çok yüksek<br>Hastaneye uzaklık: çok uzak<br>Yeşil alana uzaklık: çok uzak<br>Yapılaşma yoğunluğu: çok seyrek<br>Nüfus yoğunluğu: seyrek<br>Yaşlı nüfus oranı: orta<br>Çocuk nüfus oranı: orta<br>Sosyoekonomik gelişmişlik: düşük"}, "geometry": {"type": "LineString", "coordinates": [[30.6422602, 39.8269526], [30.6424997, 39.8280166], [30.6425938, 39.8282859], [30.6426536, 39.8284107], [30.6429615, 39.8288114], [30.6430565, 39.828934], [30.6431753, 39.8290873], [30.6433926, 39.8294485], [30.6436115, 39.829685], [30.6438784, 39.8298321], [30.6444737, 39.8300528], [30.6445925, 39.8301028], [30.6454727, 39.8304732], [30.6460132, 39.8307096]]}, "bbox": [30.6422602, 39.8269526, 30.6460132, 39.8307096]}, {"id": "423", "type": "Feature", "properties": {"name": null, "_mahalle_str": "Cumhuriyet Mahallesi", "_hvi_str": "%74", "_aciklama_str": "Sıcaklık: çok düşük<br>Ağaç örtüsü: çok yüksek<br>Hastaneye uzaklık: çok uzak<br>Yeşil alana uzaklık: çok uzak<br>Yapılaşma yoğunluğu: çok seyrek<br>Nüfus yoğunluğu: seyrek<br>Yaşlı nüfus oranı: orta<br>Çocuk nüfus oranı: orta<br>Sosyoekonomik gelişmişlik: düşük"}, "geometry": {"type": "LineString", "coordinates": [[30.6387946, 39.8137156], [30.6402021, 39.8131738], [30.6407713, 39.8129846], [30.6414883, 39.8127954], [30.643133, 39.8124442], [30.6439786, 39.8122405], [30.6443344, 39.8121984], [30.6446464, 39.8122321], [30.6450733, 39.8123119], [30.6479468, 39.8130981], [30.6507108, 39.8138591], [30.6537355, 39.8147273], [30.6550165, 39.815095], [30.6554703, 39.8153338], [30.6558, 39.8155713], [30.6568238, 39.8163087], [30.6585129, 39.8175253], [30.6602691, 39.8187902], [30.6604648, 39.8188712], [30.6607385, 39.8189395], [30.6609437, 39.8189447], [30.6612927, 39.8189132], [30.6624421, 39.8188134], [30.6625926, 39.8187976], [30.6628868, 39.8187923], [30.6631194, 39.8188134], [30.6634478, 39.8188817], [30.6656645, 39.8192285], [30.6658903, 39.8192495], [30.6662666, 39.8192232], [30.6693317, 39.8189132], [30.669749, 39.8189185], [30.6700432, 39.8189973], [30.6702827, 39.8191392], [30.67135, 39.8200483], [30.6715484, 39.8201166], [30.6718152, 39.8201271], [30.6721368, 39.8200483], [30.6733751, 39.819754], [30.6736419, 39.8196752], [30.6749761, 39.8191129], [30.6752087, 39.8190709], [30.6754618, 39.8190919], [30.6787869, 39.8193704], [30.6791495, 39.8193336], [30.680771, 39.818992], [30.6816057, 39.8187766], [30.6827893, 39.8185033], [30.6831519, 39.8184876], [30.6835351, 39.8185243], [30.6864291, 39.8187398], [30.6868533, 39.8188396], [30.6877838, 39.819281]]}, "bbox": [30.6387946, 39.8121984, 30.6877838, 39.8201271]}, {"id": "424", "type": "Feature", "properties": {"name": null, "_mahalle_str": "Cumhuriyet Mahallesi", "_hvi_str": "%84", "_aciklama_str": "Sıcaklık: çok yüksek<br>Ağaç örtüsü: yüksek<br>Hastaneye uzaklık: çok uzak<br>Yeşil alana uzaklık: çok uzak<br>Yapılaşma yoğunluğu: çok seyrek<br>Nüfus yoğunluğu: seyrek<br>Yaşlı nüfus oranı: orta<br>Çocuk nüfus oranı: orta<br>Sosyoekonomik gelişmişlik: düşük"}, "geometry": {"type": "LineString", "coordinates": [[30.6192994, 39.8317792], [30.6192181, 39.8318079], [30.6190475, 39.831868], [30.6189675, 39.8319135], [30.6189319, 39.8319636], [30.6189141, 39.8320205], [30.6189378, 39.8320819], [30.6196193, 39.8332855], [30.6167843, 39.8341686], [30.6127717, 39.8344652], [30.6106259, 39.8346135], [30.6105061, 39.8346663], [30.6104087, 39.8347312], [30.6101775, 39.8349822], [30.6095316, 39.836014], [30.6084788, 39.8379858], [30.6081368, 39.8391363], [30.6070193, 39.8422039], [30.6063859, 39.8437877], [30.6060264, 39.844412], [30.6056264, 39.8450007], [30.604865, 39.845743], [30.6046597, 39.8459663], [30.6043859, 39.8463144], [30.6041378, 39.8465049], [30.603941, 39.8466297], [30.6034191, 39.8468268], [30.6027005, 39.8470895], [30.6015712, 39.8476544], [30.6009979, 39.8480157], [30.6005702, 39.8483835], [30.6002622, 39.8486659], [30.600151, 39.8489024], [30.6000226, 39.8491651]]}, "bbox": [30.6000226, 39.8317792, 30.6196193, 39.8491651]}, {"id": "427", "type": "Feature", "properties": {"name": null, "_mahalle_str": "Cumhuriyet Mahallesi", "_hvi_str": "%68", "_aciklama_str": "Sıcaklık: düşük<br>Ağaç örtüsü: çok yüksek<br>Hastaneye uzaklık: çok uzak<br>Yeşil alana uzaklık: çok uzak<br>Yapılaşma yoğunluğu: çok seyrek<br>Nüfus yoğunluğu: seyrek<br>Yaşlı nüfus oranı: orta<br>Çocuk nüfus oranı: orta<br>Sosyoekonomik gelişmişlik: düşük"}, "geometry": {"type": "LineString", "coordinates": [[30.6387946, 39.8137156], [30.6388986, 39.813846]]}, "bbox": [30.6387946, 39.8137156, 30.6388986, 39.813846]}, {"id": "429", "type": "Feature", "properties": {"name": null, "_mahalle_str": "Cumhuriyet Mahallesi", "_hvi_str": "%86", "_aciklama_str": "Sıcaklık: çok yüksek<br>Ağaç örtüsü: yüksek<br>Hastaneye uzaklık: çok uzak<br>Yeşil alana uzaklık: çok uzak<br>Yapılaşma yoğunluğu: çok seyrek<br>Nüfus yoğunluğu: seyrek<br>Yaşlı nüfus oranı: orta<br>Çocuk nüfus oranı: orta<br>Sosyoekonomik gelişmişlik: düşük"}, "geometry": {"type": "LineString", "coordinates": [[30.6434131, 39.8317868], [30.6445925, 39.8301028]]}, "bbox": [30.6434131, 39.8301028, 30.6445925, 39.8317868]}, {"id": "430", "type": "Feature", "properties": {"name": "Eskişehir- Sarıcakaya yolu", "_mahalle_str": "Muttalip Emirler Mahallesi", "_hvi_str": "%80", "_aciklama_str": "Sıcaklık: çok yüksek<br>Ağaç örtüsü: çok düşük<br>Hastaneye uzaklık: çok uzak<br>Yeşil alana uzaklık: çok uzak<br>Yapılaşma yoğunluğu: çok seyrek<br>Nüfus yoğunluğu: seyrek<br>Yaşlı nüfus oranı: orta<br>Çocuk nüfus oranı: orta<br>Sosyoekonomik gelişmişlik: düşük"}, "geometry": {"type": "LineString", "coordinates": [[30.6050024, 39.8520225], [30.604376, 39.852028], [30.6039314, 39.851971], [30.6035673, 39.8518246], [30.6035013, 39.8517981], [30.6032271, 39.8516], [30.6029967, 39.851357], [30.6026541, 39.8505223], [30.6025357, 39.8502066], [30.6022519, 39.8498591], [30.6018595, 39.8495422], [30.6015597, 39.849424], [30.6008272, 39.8492963], [30.6000226, 39.8491651], [30.5991283, 39.8490255]]}, "bbox": [30.5991283, 39.8490255, 30.6050024, 39.852028]}, {"id": "433", "type": "Feature", "properties": {"name": "Eskişehir- Sarıcakaya yolu", "_mahalle_str": "Cumhuriyet Mahallesi", "_hvi_str": "%83", "_aciklama_str": "Sıcaklık: çok yüksek<br>Ağaç örtüsü: çok düşük<br>Hastaneye uzaklık: çok uzak<br>Yeşil alana uzaklık: çok uzak<br>Yapılaşma yoğunluğu: çok seyrek<br>Nüfus yoğunluğu: seyrek<br>Yaşlı nüfus oranı: orta<br>Çocuk nüfus oranı: orta<br>Sosyoekonomik gelişmişlik: düşük"}, "geometry": {"type": "LineString", "coordinates": [[30.6229026, 39.8511915], [30.6220025, 39.8510458], [30.6213169, 39.8508703], [30.6206587, 39.8506772], [30.6200683, 39.8505369], [30.6192041, 39.8504352], [30.6172692, 39.8504247], [30.6172155, 39.8504244], [30.6149524, 39.8506323], [30.6140057, 39.8507468], [30.6127214, 39.8509021], [30.611137, 39.8510264], [30.6093922, 39.8512204], [30.6086199, 39.8513008], [30.6067816, 39.8516556], [30.6057802, 39.8518927], [30.6050024, 39.8520225]]}, "bbox": [30.6050024, 39.8504244, 30.6229026, 39.8520225]}, {"id": "435", "type": "Feature", "properties": {"name": null, "_mahalle_str": "Cumhuriyet Mahallesi", "_hvi_str": "%85", "_aciklama_str": "Sıcaklık: çok yüksek<br>Ağaç örtüsü: yüksek<br>Hastaneye uzaklık: çok uzak<br>Yeşil alana uzaklık: çok uzak<br>Yapılaşma yoğunluğu: çok seyrek<br>Nüfus yoğunluğu: seyrek<br>Yaşlı nüfus oranı: orta<br>Çocuk nüfus oranı: orta<br>Sosyoekonomik gelişmişlik: düşük"}, "geometry": {"type": "LineString", "coordinates": [[30.6430642, 39.8290649], [30.6429547, 39.8292489], [30.6428247, 39.8294012], [30.6426399, 39.8295116], [30.642421, 39.8295957]]}, "bbox": [30.642421, 39.8290649, 30.6430642, 39.8295957]}, {"id": "438", "type": "Feature", "properties": {"name": "Eskişehir- Sarıcakaya yolu", "_mahalle_str": "Cumhuriyet Mahallesi", "_hvi_str": "%92", "_aciklama_str": "Sıcaklık: çok yüksek<br>Ağaç örtüsü: orta<br>Hastaneye uzaklık: çok uzak<br>Yeşil alana uzaklık: çok uzak<br>Yapılaşma yoğunluğu: çok seyrek<br>Nüfus yoğunluğu: seyrek<br>Yaşlı nüfus oranı: orta<br>Çocuk nüfus oranı: orta<br>Sosyoekonomik gelişmişlik: düşük"}, "geometry": {"type": "LineString", "coordinates": [[30.6229026, 39.8511915], [30.6234287, 39.8512367], [30.6240903, 39.8512062], [30.6246483, 39.8511592], [30.6273655, 39.8507289], [30.6280699, 39.8505825], [30.628497, 39.8505543], [30.6287712, 39.8505632], [30.6290917, 39.8506195], [30.6293481, 39.850697], [30.6295922, 39.8508148], [30.629952, 39.8510532], [30.6313473, 39.8525815], [30.6323642, 39.8537646], [30.6327898, 39.8545317], [30.6334454, 39.8558759], [30.6338055, 39.8566301], [30.6339693, 39.8568782], [30.6341131, 39.8570438], [30.634981, 39.8577536], [30.63563, 39.8582704], [30.6362462, 39.8587763], [30.6366477, 39.8591595], [30.6370164, 39.8598039], [30.6380322, 39.8620203], [30.6388479, 39.8637847], [30.6397754, 39.8657587], [30.6399532, 39.8668365], [30.6398393, 39.8679461], [30.6396406, 39.8688367], [30.637271, 39.8723486], [30.6358819, 39.8744198], [30.635605, 39.8747545], [30.6350832, 39.8753188], [30.6347415, 39.8756508], [30.6344403, 39.8760139], [30.6342108, 39.8763908], [30.6335737, 39.8776308], [30.6320825, 39.8809061], [30.6318498, 39.8811635], [30.6311799, 39.881793], [30.6302739, 39.8824469], [30.6296859, 39.882926], [30.6293781, 39.8833992], [30.6290913, 39.883955], [30.6288726, 39.8857598], [30.6286829, 39.8869847], [30.6285898, 39.8874553], [30.6284586, 39.8886204], [30.6285374, 39.8898016], [30.6287085, 39.8915743], [30.6288583, 39.8938174], [30.6289711, 39.8953071], [30.6290124, 39.8958534], [30.6290034, 39.8965069], [30.6288554, 39.8970429], [30.6284874, 39.8978953], [30.6283329, 39.8983004], [30.6282847, 39.8985281], [30.6283625, 39.898909]]}, "bbox": [30.6229026, 39.8505543, 30.6399532, 39.898909]}, {"id": "440", "type": "Feature", "properties": {"name": null, "_mahalle_str": "Cumhuriyet Mahallesi", "_hvi_str": "%86", "_aciklama_str": "Sıcaklık: çok yüksek<br>Ağaç örtüsü: orta<br>Hastaneye uzaklık: çok uzak<br>Yeşil alana uzaklık: çok uzak<br>Yapılaşma yoğunluğu: çok seyrek<br>Nüfus yoğunluğu: seyrek<br>Yaşlı nüfus oranı: orta<br>Çocuk nüfus oranı: orta<br>Sosyoekonomik gelişmişlik: düşük"}, "geometry": {"type": "LineString", "coordinates": [[30.6421324, 39.8312792], [30.6431326, 39.8298426], [30.6431805, 39.8296955], [30.6432147, 39.8295536], [30.6430642, 39.8290649], [30.6430565, 39.828934]]}, "bbox": [30.6421324, 39.828934, 30.6432147, 39.8312792]}, {"id": "441", "type": "Feature", "properties": {"name": null, "_mahalle_str": "Cumhuriyet Mahallesi", "_hvi_str": "%87", "_aciklama_str": "Sıcaklık: çok yüksek<br>Ağaç örtüsü: yüksek<br>Hastaneye uzaklık: çok uzak<br>Yeşil alana uzaklık: çok uzak<br>Yapılaşma yoğunluğu: çok seyrek<br>Nüfus yoğunluğu: seyrek<br>Yaşlı nüfus oranı: orta<br>Çocuk nüfus oranı: orta<br>Sosyoekonomik gelişmişlik: düşük"}, "geometry": {"type": "LineString", "coordinates": [[30.6442889, 39.8321021], [30.644111, 39.8320758], [30.6434131, 39.8317868], [30.6421324, 39.8312792], [30.639905, 39.8303963], [30.6398072, 39.8303576]]}, "bbox": [30.6398072, 39.8303576, 30.6442889, 39.8321021]}, {"id": "442", "type": "Feature", "properties": {"name": null, "_mahalle_str": "Cumhuriyet Mahallesi", "_hvi_str": "%87", "_aciklama_str": "Sıcaklık: çok yüksek<br>Ağaç örtüsü: yüksek<br>Hastaneye uzaklık: çok uzak<br>Yeşil alana uzaklık: çok uzak<br>Yapılaşma yoğunluğu: çok seyrek<br>Nüfus yoğunluğu: seyrek<br>Yaşlı nüfus oranı: orta<br>Çocuk nüfus oranı: orta<br>Sosyoekonomik gelişmişlik: düşük"}, "geometry": {"type": "LineString", "coordinates": [[30.6229026, 39.8511915], [30.6232967, 39.8509155], [30.6234267, 39.8507789], [30.6235635, 39.8505635], [30.6236758, 39.8504399], [30.6237688, 39.8503376], [30.6241383, 39.8499594], [30.6244325, 39.8497808], [30.6246172, 39.8497283], [30.6247541, 39.8497756], [30.6250346, 39.8499227], [30.6253015, 39.8500697], [30.6254588, 39.8501013], [30.6255888, 39.850054], [30.6256573, 39.8499647], [30.6258557, 39.8491925], [30.6259925, 39.8489561], [30.6261773, 39.8487932], [30.6263483, 39.8486934], [30.6266631, 39.8486041], [30.6268068, 39.8485253], [30.6270873, 39.8481313], [30.6271968, 39.8479475], [30.6272447, 39.8477426], [30.627361, 39.8474432], [30.6275389, 39.8471753], [30.6278605, 39.8469336], [30.6280726, 39.8468338], [30.6283395, 39.846797], [30.6286747, 39.8468391], [30.6288595, 39.8468338], [30.6289553, 39.8467813], [30.62901, 39.846671], [30.6289211, 39.8460353], [30.628969, 39.8458987], [30.6290784, 39.8457621], [30.6294206, 39.8455572], [30.6295779, 39.8454207], [30.6297079, 39.8452315], [30.6315759, 39.8417274], [30.633567, 39.8383282], [30.6339433, 39.8378554], [30.6344018, 39.8374666], [30.6354692, 39.8367888], [30.6369882, 39.8360532], [30.6378366, 39.8355121], [30.6382814, 39.8352809], [30.6393146, 39.834766], [30.6395335, 39.8346241], [30.639643, 39.8344875], [30.6397593, 39.8342826], [30.6403683, 39.833589], [30.6404572, 39.8334524], [30.6404641, 39.8333158], [30.6403272, 39.8329112], [30.6396156, 39.8313507], [30.6395677, 39.8311773], [30.6396088, 39.8310039], [30.639905, 39.8303963], [30.6400809, 39.8302788], [30.6408267, 39.8292278], [30.6416546, 39.8278669], [30.6418804, 39.827478], [30.6422602, 39.8269526]]}, "bbox": [30.6229026, 39.8269526, 30.6422602, 39.8511915]}, {"id": "443", "type": "Feature", "properties": {"name": null, "_mahalle_str": "Cumhuriyet Mahallesi", "_hvi_str": "%88", "_aciklama_str": "Sıcaklık: çok yüksek<br>Ağaç örtüsü: yüksek<br>Hastaneye uzaklık: çok uzak<br>Yeşil alana uzaklık: çok uzak<br>Yapılaşma yoğunluğu: çok seyrek<br>Nüfus yoğunluğu: seyrek<br>Yaşlı nüfus oranı: orta<br>Çocuk nüfus oranı: orta<br>Sosyoekonomik gelişmişlik: düşük"}, "geometry": {"type": "LineString", "coordinates": [[30.6460406, 39.8295116], [30.64576, 39.8299635], [30.645589, 39.8301894], [30.6454727, 39.8304732], [30.6447063, 39.8317027], [30.6444668, 39.8319497], [30.6442889, 39.8321021]]}, "bbox": [30.6442889, 39.8295116, 30.6460406, 39.8321021]}, {"id": "445", "type": "Feature", "properties": {"name": null, "_mahalle_str": "Cumhuriyet Mahallesi", "_hvi_str": "%83", "_aciklama_str": "Sıcaklık: çok yüksek<br>Ağaç örtüsü: çok yüksek<br>Hastaneye uzaklık: çok uzak<br>Yeşil alana uzaklık: çok uzak<br>Yapılaşma yoğunluğu: çok seyrek<br>Nüfus yoğunluğu: seyrek<br>Yaşlı nüfus oranı: orta<br>Çocuk nüfus oranı: orta<br>Sosyoekonomik gelişmişlik: düşük"}, "geometry": {"type": "LineString", "coordinates": [[30.6436115, 39.829685], [30.6433926, 39.829685], [30.6431805, 39.8296955], [30.6428452, 39.8296482], [30.642421, 39.8295957], [30.6421541, 39.8295536], [30.6415452, 39.8295168], [30.6414152, 39.8294906], [30.6408267, 39.8292278]]}, "bbox": [30.6408267, 39.8292278, 30.6436115, 39.8296955]}, {"id": "452", "type": "Feature", "properties": {"name": null, "_mahalle_str": "Muttalip Emirler Mahallesi", "_hvi_str": "%67", "_aciklama_str": "Sıcaklık: çok düşük<br>Ağaç örtüsü: çok yüksek<br>Hastaneye uzaklık: çok uzak<br>Yeşil alana uzaklık: çok uzak<br>Yapılaşma yoğunluğu: çok seyrek<br>Nüfus yoğunluğu: seyrek<br>Yaşlı nüfus oranı: orta<br>Çocuk nüfus oranı: orta<br>Sosyoekonomik gelişmişlik: düşük"}, "geometry": {"type": "LineString", "coordinates": [[30.6045674, 39.884522], [30.6049029, 39.8840545], [30.6050261, 39.8837918], [30.6050877, 39.8834819], [30.6051288, 39.8829671], [30.605122, 39.8825731], [30.604944, 39.8814226], [30.6049303, 39.8810759], [30.604985, 39.8807869], [30.6051425, 39.8803824], [30.6052041, 39.8800094], [30.6051767, 39.8795681], [30.605122, 39.879295], [30.6049987, 39.8790375], [30.6049303, 39.8788589], [30.6048823, 39.8783966], [30.6047797, 39.8780656], [30.6046907, 39.8778345], [30.6046564, 39.8775087], [30.6046838, 39.8769728], [30.6046633, 39.876768], [30.6045537, 39.8764842], [30.6045264, 39.8763266], [30.6045537, 39.8761743], [30.6046907, 39.8757487], [30.6048755, 39.8750079], [30.6049029, 39.8747032], [30.6048002, 39.8742724], [30.6046838, 39.8737943], [30.6046017, 39.8735158], [30.6043689, 39.8731585], [30.6042594, 39.8729746], [30.6041224, 39.8725596], [30.6039787, 39.8721287], [30.6038418, 39.8716033], [30.6038623, 39.8713879], [30.6039992, 39.8711042], [30.6040471, 39.870915], [30.6040403, 39.8707889], [30.6038623, 39.8703476], [30.6037925, 39.8698067], [30.6036898, 39.8689069], [30.6037069, 39.8684996], [30.6038438, 39.8681121], [30.6039636, 39.8676524], [30.6040406, 39.8674159], [30.6042546, 39.8671663], [30.6045926, 39.8666113], [30.6046419, 39.8664348], [30.6046254, 39.8662835], [30.6044612, 39.8659263], [30.6043352, 39.8657077], [30.6043133, 39.8655144], [30.6043681, 39.8650941], [30.6045105, 39.8647369], [30.6048061, 39.8639888], [30.6050471, 39.8635517], [30.6052223, 39.8632995], [30.6052935, 39.8631314], [30.6052935, 39.8629843], [30.6052442, 39.8627826], [30.6051785, 39.8621984], [30.6051401, 39.8620303], [30.6050087, 39.8618748], [30.6047842, 39.8617319], [30.6043955, 39.861589], [30.6042531, 39.8615091], [30.6041929, 39.8613872], [30.604171, 39.861051], [30.6041162, 39.8608072], [30.6040177, 39.8605971], [30.603826, 39.8603407], [30.6036289, 39.8600044], [30.6035194, 39.8598027], [30.6033442, 39.859643], [30.6029609, 39.859395], [30.6027255, 39.8592815], [30.602375, 39.8591891], [30.6021505, 39.859105], [30.6017399, 39.8588612], [30.6015537, 39.8587141], [30.6015235, 39.8586774], [30.601384, 39.8585081], [30.6012307, 39.8583442], [30.601039, 39.858256], [30.6007269, 39.8581929], [30.6004148, 39.8582055], [30.6002725, 39.858277], [30.5999877, 39.8585334], [30.5998563, 39.8586258], [30.5997578, 39.8586553], [30.5996263, 39.8586469], [30.5994895, 39.8585712], [30.5993964, 39.8584325], [30.5993416, 39.8581635], [30.5993799, 39.8579954], [30.5997359, 39.8576045], [30.5999932, 39.8574616], [30.6003217, 39.8573733], [30.6004682, 39.8573176], [30.6006119, 39.8572325], [30.6009541, 39.8569278], [30.6012758, 39.856602], [30.601399, 39.8563971], [30.6017892, 39.8554514], [30.6018987, 39.8550678], [30.6020013, 39.8545056], [30.6020766, 39.8539749], [30.602104, 39.8537385], [30.6020629, 39.8534915], [30.6019603, 39.853108], [30.6017481, 39.8523303], [30.6014076, 39.851108], [30.6010955, 39.8499604], [30.6010024, 39.849456], [30.6009422, 39.8493719], [30.6008272, 39.8492963]]}, "bbox": [30.5993416, 39.8492963, 30.6052935, 39.884522]}, {"id": "502", "type": "Feature", "properties": {"name": null, "_mahalle_str": "Cumhuriyet Mahallesi", "_hvi_str": "%74", "_aciklama_str": "Sıcaklık: çok düşük<br>Ağaç örtüsü: çok yüksek<br>Hastaneye uzaklık: çok uzak<br>Yeşil alana uzaklık: çok uzak<br>Yapılaşma yoğunluğu: çok seyrek<br>Nüfus yoğunluğu: seyrek<br>Yaşlı nüfus oranı: orta<br>Çocuk nüfus oranı: orta<br>Sosyoekonomik gelişmişlik: düşük"}, "geometry": {"type": "LineString", "coordinates": [[30.6536707, 39.8148556], [30.6536716, 39.8149023]]}, "bbox": [30.6536707, 39.8148556, 30.6536716, 39.8149023]}, {"id": "503", "type": "Feature", "properties": {"name": null, "_mahalle_str": "Cumhuriyet Mahallesi", "_hvi_str": "%70", "_aciklama_str": "Sıcaklık: çok düşük<br>Ağaç örtüsü: çok yüksek<br>Hastaneye uzaklık: çok uzak<br>Yeşil alana uzaklık: çok uzak<br>Yapılaşma yoğunluğu: çok seyrek<br>Nüfus yoğunluğu: seyrek<br>Yaşlı nüfus oranı: orta<br>Çocuk nüfus oranı: orta<br>Sosyoekonomik gelişmişlik: düşük"}, "geometry": {"type": "LineString", "coordinates": [[30.6585129, 39.8175253], [30.6584677, 39.8175704]]}, "bbox": [30.6584677, 39.8175253, 30.6585129, 39.8175704]}, {"id": "504", "type": "Feature", "properties": {"name": null, "_mahalle_str": "Cumhuriyet Mahallesi", "_hvi_str": "%74", "_aciklama_str": "Sıcaklık: çok düşük<br>Ağaç örtüsü: çok yüksek<br>Hastaneye uzaklık: çok uzak<br>Yeşil alana uzaklık: çok uzak<br>Yapılaşma yoğunluğu: çok seyrek<br>Nüfus yoğunluğu: seyrek<br>Yaşlı nüfus oranı: orta<br>Çocuk nüfus oranı: orta<br>Sosyoekonomik gelişmişlik: düşük"}, "geometry": {"type": "LineString", "coordinates": [[30.6537128, 39.8147722], [30.6536707, 39.8148556]]}, "bbox": [30.6536707, 39.8147722, 30.6537128, 39.8148556]}, {"id": "505", "type": "Feature", "properties": {"name": null, "_mahalle_str": "Cumhuriyet Mahallesi", "_hvi_str": "%69", "_aciklama_str": "Sıcaklık: çok düşük<br>Ağaç örtüsü: çok yüksek<br>Hastaneye uzaklık: çok uzak<br>Yeşil alana uzaklık: çok uzak<br>Yapılaşma yoğunluğu: çok seyrek<br>Nüfus yoğunluğu: seyrek<br>Yaşlı nüfus oranı: orta<br>Çocuk nüfus oranı: orta<br>Sosyoekonomik gelişmişlik: düşük"}, "geometry": {"type": "LineString", "coordinates": [[30.6494084, 39.8136623], [30.6508258, 39.81407], [30.6535687, 39.8148822], [30.6536716, 39.8149023], [30.6547169, 39.8152008], [30.6550014, 39.8153101], [30.6552641, 39.815453], [30.6556383, 39.8157252], [30.6566506, 39.8164613], [30.6583359, 39.817687], [30.6600746, 39.8189251], [30.660288, 39.8190302], [30.6606492, 39.8191394], [30.6610268, 39.819131], [30.6619298, 39.8190638], [30.6619681, 39.8191647], [30.6618805, 39.8193034], [30.6613989, 39.820039], [30.6613935, 39.8201398], [30.6614444, 39.8202653]]}, "bbox": [30.6494084, 39.8136623, 30.6619681, 39.8202653]}, {"id": "1450", "type": "Feature", "properties": {"name": "Musaözü yolu", "_mahalle_str": "Musaözü Mahallesi", "_hvi_str": "%96", "_aciklama_str": "Sıcaklık: çok yüksek<br>Ağaç örtüsü: çok yüksek<br>Hastaneye uzaklık: çok uzak<br>Yeşil alana uzaklık: çok uzak<br>Yapılaşma yoğunluğu: çok seyrek<br>Nüfus yoğunluğu: seyrek<br>Yaşlı nüfus oranı: orta<br>Çocuk nüfus oranı: orta<br>Sosyoekonomik gelişmişlik: düşük"}, "geometry": {"type": "LineString", "coordinates": [[30.3435272, 39.6919393], [30.3438257, 39.691923], [30.3441539, 39.691921], [30.3445559, 39.6920161], [30.3453326, 39.6922263], [30.3456314, 39.6922788], [30.3459643, 39.6922854], [30.3464849, 39.6922131], [30.3469459, 39.692154], [30.3477226, 39.6920883], [30.3488152, 39.6919898], [30.3500699, 39.691957], [30.351457, 39.6920062], [30.3517684, 39.6919931], [30.3525214, 39.6918624], [30.3528328, 39.691845], [30.3532178, 39.6918929], [30.3536085, 39.691919], [30.354271, 39.6918842], [30.3545371, 39.6918319], [30.3547126, 39.6917404], [30.3549617, 39.6915574], [30.3551033, 39.6914703], [30.3553864, 39.6913831], [30.3556695, 39.6913614], [30.3561564, 39.6913962], [30.3564678, 39.6914485], [30.3568981, 39.6915443], [30.3572379, 39.6916184], [30.3600462, 39.6919887], [30.3615806, 39.6923024], [30.3619883, 39.6923896], [30.3624696, 39.6924462], [30.3630358, 39.6924854], [30.3636359, 39.6925029], [30.3642644, 39.6924985], [30.3645192, 39.6925072], [30.364791, 39.6925595], [30.3649722, 39.6926292], [30.3652892, 39.6927904], [30.3655497, 39.6928993], [30.3658724, 39.6930257], [30.3669765, 39.6933655], [30.3672992, 39.6934352], [30.3675144, 39.6934439], [30.3679447, 39.6934221], [30.3681372, 39.6934396], [30.3682958, 39.6934962], [30.3685052, 39.6936661], [30.3687204, 39.6938491], [30.3693998, 39.6942499], [30.3696716, 39.6944198], [30.3705266, 39.6950472], [30.3708153, 39.6952127], [30.3711551, 39.6953652], [30.3717722, 39.6956135], [30.372899, 39.6959882], [30.3731764, 39.6961276], [30.374105, 39.6967288], [30.3744164, 39.6969118], [30.3753664, 39.6973016], [30.3771386, 39.6979508], [30.3777671, 39.6981032], [30.3786221, 39.6983516], [30.3791373, 39.6985737], [30.3796639, 39.6988264], [30.3800998, 39.6991096], [30.3805698, 39.6993143], [30.3808642, 39.6994189], [30.3816965, 39.6996367], [30.3820815, 39.6997848], [30.3824575, 39.6999771]]}, "bbox": [30.3435272, 39.6913614, 30.3824575, 39.6999771]}, {"id": "1451", "type": "Feature", "properties": {"name": "Eskişehir - Kütahya Yolu", "_mahalle_str": "Yeniakçayır Mahallesi", "_hvi_str": "%76", "_aciklama_str": "Sıcaklık: çok yüksek<br>Ağaç örtüsü: orta<br>Hastaneye uzaklık: çok uzak<br>Yeşil alana uzaklık: çok uzak<br>Yapılaşma yoğunluğu: çok seyrek<br>Nüfus yoğunluğu: seyrek<br>Yaşlı nüfus oranı: orta<br>Çocuk nüfus oranı: orta<br>Sosyoekonomik gelişmişlik: düşük"}, "geometry": {"type": "LineString", "coordinates": [[30.360677, 39.7269764], [30.3624557, 39.7268844], [30.3637192, 39.7268034], [30.3657597, 39.7266902], [30.3677585, 39.7265943], [30.3696828, 39.7264925], [30.3704259, 39.7264554], [30.3708096, 39.7264533], [30.371175, 39.7264628], [30.3719279, 39.7265307], [30.3725333, 39.7266251], [30.3731983, 39.726787], [30.3734725, 39.7268648], [30.3737501, 39.7269588], [30.374022, 39.727062], [30.3742412, 39.7271435], [30.3743033, 39.7271663], [30.3744739, 39.7272501], [30.3751484, 39.7275945], [30.3756464, 39.7279209], [30.3758989, 39.728101], [30.3761409, 39.728289], [30.3764468, 39.7285444], [30.3772543, 39.7291879], [30.3790576, 39.7306481], [30.3794336, 39.7309686], [30.3797395, 39.7312768], [30.3802559, 39.7316356], [30.3806874, 39.7319784], [30.3812129, 39.7324833], [30.3821588, 39.7331865], [30.3822007, 39.7332208], [30.3824433, 39.7333595], [30.3828454, 39.7336001], [30.3832578, 39.7338663], [30.3833037, 39.7339011], [30.3834902, 39.7340428], [30.3835319, 39.7340745], [30.3838691, 39.7344091], [30.3842638, 39.7347829], [30.384496, 39.7349811], [30.3847952, 39.7352106], [30.3851481, 39.7354105], [30.3854429, 39.7355574], [30.3865317, 39.7360773], [30.3877017, 39.7365667], [30.3884783, 39.73699], [30.389375, 39.7376017], [30.3936358, 39.7408241], [30.3943527, 39.7412934], [30.3949425, 39.7416038], [30.3955799, 39.741852], [30.3965182, 39.7421277], [30.3970113, 39.7422303], [30.3972694, 39.7422597], [30.3977625, 39.7423144], [30.3984206, 39.7423383], [30.3988853, 39.742322], [30.4003063, 39.7422015], [30.4014398, 39.7420943], [30.4026211, 39.7419798], [30.4032656, 39.7419278], [30.4038773, 39.7419001], [30.4045226, 39.741904], [30.4050861, 39.7419279], [30.4057793, 39.7419873], [30.4059405, 39.7420131], [30.4062783, 39.742067], [30.406444, 39.7420935], [30.407283, 39.7422629], [30.4080234, 39.7423915], [30.4085413, 39.7424467], [30.4094209, 39.7424889], [30.4101024, 39.7424536], [30.4105996, 39.742442], [30.4121901, 39.7423607], [30.4127627, 39.7423125], [30.4134789, 39.7422169], [30.4143305, 39.7420313], [30.4163145, 39.7415152], [30.4203558, 39.7404259]]}, "bbox": [30.360677, 39.7264533, 30.4203558, 39.7424889]}, {"id": "1452", "type": "Feature", "properties": {"name": null, "_mahalle_str": "Yeniakçayır Mahallesi", "_hvi_str": "%72", "_aciklama_str": "Sıcaklık: orta<br>Ağaç örtüsü: çok yüksek<br>Hastaneye uzaklık: çok uzak<br>Yeşil alana uzaklık: çok uzak<br>Yapılaşma yoğunluğu: çok seyrek<br>Nüfus yoğunluğu: seyrek<br>Yaşlı nüfus oranı: orta<br>Çocuk nüfus oranı: orta<br>Sosyoekonomik gelişmişlik: düşük"}, "geometry": {"type": "LineString", "coordinates": [[30.3805524, 39.7310514], [30.3804251, 39.7313775], [30.3803523, 39.731537], [30.3802559, 39.7316356]]}, "bbox": [30.3802559, 39.7310514, 30.3805524, 39.7316356]}, {"id": "1453", "type": "Feature", "properties": {"name": null, "_mahalle_str": "Yeniakçayır Mahallesi", "_hvi_str": "%78", "_aciklama_str": "Sıcaklık: orta<br>Ağaç örtüsü: orta<br>Hastaneye uzaklık: çok uzak<br>Yeşil alana uzaklık: çok uzak<br>Yapılaşma yoğunluğu: çok seyrek<br>Nüfus yoğunluğu: seyrek<br>Yaşlı nüfus oranı: orta<br>Çocuk nüfus oranı: orta<br>Sosyoekonomik gelişmişlik: düşük"}, "geometry": {"type": "LineString", "coordinates": [[30.3793306, 39.731034], [30.379514, 39.7315639], [30.3795785, 39.7317869], [30.3796816, 39.7318562], [30.3799392, 39.731878], [30.3802231, 39.7317538]]}, "bbox": [30.3793306, 39.731034, 30.3802231, 39.731878]}, {"id": "1454", "type": "Feature", "properties": {"name": null, "_mahalle_str": "Yeniakçayır Mahallesi", "_hvi_str": "%78", "_aciklama_str": "Sıcaklık: yüksek<br>Ağaç örtüsü: çok yüksek<br>Hastaneye uzaklık: çok uzak<br>Yeşil alana uzaklık: çok uzak<br>Yapılaşma yoğunluğu: çok seyrek<br>Nüfus yoğunluğu: seyrek<br>Yaşlı nüfus oranı: orta<br>Çocuk nüfus oranı: orta<br>Sosyoekonomik gelişmişlik: düşük"}, "geometry": {"type": "LineString", "coordinates": [[30.3796945, 39.7327284], [30.3798427, 39.7327878], [30.3799716, 39.7327829], [30.3802035, 39.7327532], [30.3803775, 39.7327779], [30.3805837, 39.7328374], [30.3808414, 39.7328275], [30.3810334, 39.7327852], [30.3811512, 39.7327964]]}, "bbox": [30.3796945, 39.7327284, 30.3811512, 39.7328374]}, {"id": "1534", "type": "Feature", "properties": {"name": null, "_mahalle_str": "Muttalip Orta Mahallesi", "_hvi_str": "%70", "_aciklama_str": "Sıcaklık: orta<br>Ağaç örtüsü: yüksek<br>Hastaneye uzaklık: çok uzak<br>Yeşil alana uzaklık: çok uzak<br>Yapılaşma yoğunluğu: çok seyrek<br>Nüfus yoğunluğu: seyrek<br>Yaşlı nüfus oranı: orta<br>Çocuk nüfus oranı: orta<br>Sosyoekonomik gelişmişlik: düşük"}, "geometry": {"type": "LineString", "coordinates": [[30.542533, 39.8471803], [30.5428113, 39.8484086], [30.5432062, 39.8501309], [30.5433967, 39.8509617], [30.544039, 39.8532401], [30.5452424, 39.8570726], [30.5454864, 39.8577092], [30.5454952, 39.8577309], [30.5455008, 39.8577447], [30.5462669, 39.8596316], [30.5469662, 39.861167], [30.5473239, 39.8619284], [30.5475191, 39.8622155], [30.5479952, 39.8625276], [30.5485705, 39.8627998], [30.5493757, 39.8630797], [30.5500453, 39.8634401], [30.550338, 39.8636918], [30.5504645, 39.8640354], [30.5505865, 39.864584], [30.5507552, 39.8656481], [30.5509991, 39.8663159], [30.5512756, 39.867121], [30.5513244, 39.8675204], [30.5512105, 39.8678449], [30.5510073, 39.8680196], [30.5507292, 39.8682218], [30.5489454, 39.8687729], [30.5466087, 39.8694913], [30.5462932, 39.869617], [30.5459887, 39.8698817], [30.5458837, 39.8700819], [30.5458226, 39.8703391], [30.5458676, 39.8706329], [30.5459927, 39.870867], [30.5462631, 39.8711036], [30.546577, 39.8712741], [30.5470723, 39.8713703], [30.5484213, 39.8713988], [30.5489205, 39.8714686], [30.5493832, 39.8716421], [30.5496945, 39.8719145], [30.5499041, 39.8722977], [30.5499612, 39.872687], [30.5498003, 39.8730966], [30.5493184, 39.8735419], [30.5487072, 39.8738961], [30.5474273, 39.8747405], [30.5464277, 39.8753577], [30.5460246, 39.8755307], [30.5457045, 39.8755843], [30.5443805, 39.8755642], [30.5440553, 39.8755767], [30.5436894, 39.8756328], [30.5434699, 39.8757451], [30.5432341, 39.8759698], [30.5430877, 39.8761071], [30.5429576, 39.8761507], [30.5427462, 39.8761632], [30.5423411, 39.875956], [30.541975, 39.8757317], [30.5415998, 39.8757015], [30.5413721, 39.8758013], [30.5411617, 39.8759061], [30.5405834, 39.8764503], [30.5403795, 39.8766666], [30.5402287, 39.8770067], [30.5402136, 39.8774003], [30.5403069, 39.8777482], [30.5407379, 39.8786404], [30.5411341, 39.8792861], [30.5414718, 39.8796463], [30.5419642, 39.879816], [30.542907, 39.879918], [30.5445327, 39.8800974], [30.5452901, 39.8802442], [30.5458391, 39.8804394], [30.5466399, 39.8808166], [30.5475421, 39.8812861], [30.5481533, 39.881754], [30.548428, 39.8819899], [30.5486881, 39.8823225], [30.5488552, 39.8827557], [30.5491684, 39.8837261], [30.54935, 39.8843313], [30.5496003, 39.8850401], [30.5496949, 39.8854067], [30.5499071, 39.8857272], [30.5500595, 39.8859003], [30.5508142, 39.8864668], [30.5511689, 39.8867491], [30.5515764, 39.8870448], [30.5519901, 39.8874935], [30.5522654, 39.8878856], [30.5526253, 39.888355], [30.5530123, 39.8888263], [30.5536092, 39.8895154], [30.5538964, 39.8897804], [30.5543811, 39.8902083], [30.5548097, 39.890595], [30.5551451, 39.8910029], [30.5559021, 39.8924538], [30.5563405, 39.8932364], [30.5569835, 39.893795], [30.5572356, 39.8939572], [30.5591798, 39.8951189], [30.5603809, 39.8959183], [30.5618231, 39.8971942], [30.562999, 39.8981737], [30.5631459, 39.8982961], [30.5638039, 39.8988311], [30.5641766, 39.8992522], [30.5645546, 39.8997666], [30.5647802, 39.9003868], [30.5648845, 39.9010449], [30.5652927, 39.9035385], [30.5655649, 39.9040894], [30.5673261, 39.9060145], [30.5677797, 39.9068611], [30.5689136, 39.9090008], [30.5690421, 39.9096502], [30.5691025, 39.9111461], [30.5687397, 39.9129493], [30.5687862, 39.9133247], [30.5691157, 39.9137644], [30.5700852, 39.9147235], [30.5710906, 39.9161324], [30.5715078, 39.9169212]]}, "bbox": [30.5402136, 39.8471803, 30.5715078, 39.9169212]}, {"id": "2340", "type": "Feature", "properties": {"name": null, "_mahalle_str": "Sazova Mahallesi", "_hvi_str": "%68", "_aciklama_str": "Sıcaklık: düşük<br>Ağaç örtüsü: çok yüksek<br>Hastaneye uzaklık: çok uzak<br>Yeşil alana uzaklık: çok uzak<br>Yapılaşma yoğunluğu: orta<br>Nüfus yoğunluğu: seyrek<br>Yaşlı nüfus oranı: orta<br>Çocuk nüfus oranı: orta<br>Sosyoekonomik gelişmişlik: düşük"}, "geometry": {"type": "LineString", "coordinates": [[30.4230577, 39.7612879], [30.4236473, 39.7610919], [30.4242355, 39.7608874]]}, "bbox": [30.4230577, 39.7608874, 30.4242355, 39.7612879]}, {"id": "2343", "type": "Feature", "properties": {"name": null, "_mahalle_str": "Sazova Mahallesi", "_hvi_str": "%68", "_aciklama_str": "Sıcaklık: yüksek<br>Ağaç örtüsü: çok yüksek<br>Hastaneye uzaklık: çok uzak<br>Yeşil alana uzaklık: çok uzak<br>Yapılaşma yoğunluğu: seyrek<br>Nüfus yoğunluğu: seyrek<br>Yaşlı nüfus oranı: orta<br>Çocuk nüfus oranı: orta<br>Sosyoekonomik gelişmişlik: düşük"}, "geometry": {"type": "LineString", "coordinates": [[30.4192458, 39.7641755], [30.4190802, 39.763862], [30.4188875, 39.7634737], [30.4187639, 39.7632042], [30.4184881, 39.762693], [30.418257, 39.7622472], [30.4181434, 39.7619885], [30.4181217, 39.7619452], [30.4179163, 39.7615364], [30.4178513, 39.7614013], [30.4176973, 39.7610813], [30.417527, 39.7607976]]}, "bbox": [30.417527, 39.7607976, 30.4192458, 39.7641755]}, {"id": "2344", "type": "Feature", "properties": {"name": null, "_mahalle_str": "Sazova Mahallesi", "_hvi_str": "%71", "_aciklama_str": "Sıcaklık: çok yüksek<br>Ağaç örtüsü: çok yüksek<br>Hastaneye uzaklık: çok uzak<br>Yeşil alana uzaklık: çok uzak<br>Yapılaşma yoğunluğu: seyrek<br>Nüfus yoğunluğu: seyrek<br>Yaşlı nüfus oranı: orta<br>Çocuk nüfus oranı: orta<br>Sosyoekonomik gelişmişlik: düşük"}, "geometry": {"type": "LineString", "coordinates": [[30.415958, 39.762059], [30.4159779, 39.7619947], [30.4163915, 39.7619635], [30.4166689, 39.7619052], [30.4169795, 39.7617889], [30.417085, 39.7617235], [30.417016, 39.7615333], [30.4169228, 39.7613712], [30.4168501, 39.7612026], [30.4169187, 39.7611062]]}, "bbox": [30.415958, 39.7611062, 30.417085, 39.762059]}, {"id": "2345", "type": "Feature", "properties": {"name": null, "_mahalle_str": "Sazova Mahallesi", "_hvi_str": "%71", "_aciklama_str": "Sıcaklık: çok yüksek<br>Ağaç örtüsü: yüksek<br>Hastaneye uzaklık: çok uzak<br>Yeşil alana uzaklık: çok uzak<br>Yapılaşma yoğunluğu: seyrek<br>Nüfus yoğunluğu: seyrek<br>Yaşlı nüfus oranı: orta<br>Çocuk nüfus oranı: orta<br>Sosyoekonomik gelişmişlik: düşük"}, "geometry": {"type": "LineString", "coordinates": [[30.4181358, 39.7646173], [30.4178352, 39.7640926], [30.4177171, 39.7638965], [30.4175067, 39.7635471], [30.4172918, 39.7631388], [30.417162, 39.7628925], [30.4171363, 39.762836], [30.4169917, 39.7625184], [30.4167362, 39.7620165], [30.4166689, 39.7619052], [30.4165497, 39.7617079], [30.4163347, 39.7613276], [30.4162536, 39.7611249], [30.4161401, 39.7608194], [30.4161158, 39.7606168]]}, "bbox": [30.4161158, 39.7606168, 30.4181358, 39.7646173]}, {"id": "2346", "type": "Feature", "properties": {"name": null, "_mahalle_str": "Sazova Mahallesi", "_hvi_str": "%67", "_aciklama_str": "Sıcaklık: çok yüksek<br>Ağaç örtüsü: yüksek<br>Hastaneye uzaklık: çok uzak<br>Yeşil alana uzaklık: çok uzak<br>Yapılaşma yoğunluğu: seyrek<br>Nüfus yoğunluğu: seyrek<br>Yaşlı nüfus oranı: orta<br>Çocuk nüfus oranı: orta<br>Sosyoekonomik gelişmişlik: düşük"}, "geometry": {"type": "LineString", "coordinates": [[30.4206021, 39.7636565], [30.420255, 39.7629985], [30.4201868, 39.7628691], [30.4199344, 39.7623842], [30.4198312, 39.7620227], [30.4195502, 39.7613349], [30.4192003, 39.7603033]]}, "bbox": [30.4192003, 39.7603033, 30.4206021, 39.7636565]}, {"id": "2600", "type": "Feature", "properties": {"name": null, "_mahalle_str": "Sazova Mahallesi", "_hvi_str": "%69", "_aciklama_str": "Sıcaklık: çok düşük<br>Ağaç örtüsü: çok yüksek<br>Hastaneye uzaklık: çok uzak<br>Yeşil alana uzaklık: çok uzak<br>Yapılaşma yoğunluğu: orta<br>Nüfus yoğunluğu: seyrek<br>Yaşlı nüfus oranı: orta<br>Çocuk nüfus oranı: orta<br>Sosyoekonomik gelişmişlik: düşük"}, "geometry": {"type": "LineString", "coordinates": [[30.412907, 39.7635036], [30.4135203, 39.7634765], [30.4139278, 39.7654468]]}, "bbox": [30.412907, 39.7634765, 30.4139278, 39.7654468]}, {"id": "2616", "type": "Feature", "properties": {"name": null, "_mahalle_str": "Sazova Mahallesi", "_hvi_str": "%71", "_aciklama_str": "Sıcaklık: düşük<br>Ağaç örtüsü: yüksek<br>Hastaneye uzaklık: çok uzak<br>Yeşil alana uzaklık: çok uzak<br>Yapılaşma yoğunluğu: orta<br>Nüfus yoğunluğu: seyrek<br>Yaşlı nüfus oranı: orta<br>Çocuk nüfus oranı: orta<br>Sosyoekonomik gelişmişlik: düşük"}, "geometry": {"type": "LineString", "coordinates": [[30.4143433, 39.7654917], [30.4141561, 39.7645553], [30.41385, 39.7632919], [30.4135533, 39.7618691]]}, "bbox": [30.4135533, 39.7618691, 30.4143433, 39.7654917]}, {"id": "6321", "type": "Feature", "properties": {"name": null, "_mahalle_str": "Keskin Mahallesi", "_hvi_str": "%70", "_aciklama_str": "Sıcaklık: orta<br>Ağaç örtüsü: çok yüksek<br>Hastaneye uzaklık: çok uzak<br>Yeşil alana uzaklık: çok uzak<br>Yapılaşma yoğunluğu: çok seyrek<br>Nüfus yoğunluğu: seyrek<br>Yaşlı nüfus oranı: orta<br>Çocuk nüfus oranı: orta<br>Sosyoekonomik gelişmişlik: düşük"}, "geometry": {"type": "LineString", "coordinates": [[30.3903038, 39.8570626], [30.390612, 39.8569056], [30.3910022, 39.8566435], [30.3913844, 39.8564313], [30.3921406, 39.8558945], [30.3923682, 39.8556323], [30.3924983, 39.8553515], [30.3926447, 39.8549582], [30.3927504, 39.8547522], [30.3927768, 39.8546762]]}, "bbox": [30.3903038, 39.8546762, 30.3927768, 39.8570626]}, {"id": "6322", "type": "Feature", "properties": {"name": null, "_mahalle_str": "Keskin Mahallesi", "_hvi_str": "%76", "_aciklama_str": "Sıcaklık: çok yüksek<br>Ağaç örtüsü: yüksek<br>Hastaneye uzaklık: çok uzak<br>Yeşil alana uzaklık: çok uzak<br>Yapılaşma yoğunluğu: çok seyrek<br>Nüfus yoğunluğu: seyrek<br>Yaşlı nüfus oranı: orta<br>Çocuk nüfus oranı: orta<br>Sosyoekonomik gelişmişlik: düşük"}, "geometry": {"type": "LineString", "coordinates": [[30.4186049, 39.8551674], [30.4178726, 39.855234], [30.4170787, 39.8553329], [30.4159629, 39.8554647], [30.4152762, 39.8556788], [30.4148256, 39.8559918], [30.4144394, 39.8562224], [30.4137957, 39.8563706], [30.4130232, 39.8565189], [30.4122722, 39.8565683], [30.4116928, 39.8567001], [30.4113924, 39.8568813], [30.4106843, 39.8571119], [30.4099941, 39.8573171], [30.4094201, 39.8574571], [30.4083687, 39.857766], [30.4073655, 39.8581078], [30.4060405, 39.858746], [30.4055508, 39.859154], [30.4053485, 39.8593225], [30.4047584, 39.8597302], [30.404281, 39.8598661], [30.4040248, 39.8599996], [30.4039806, 39.8600226], [30.4037607, 39.8601049], [30.4037124, 39.8601214], [30.4037231, 39.8604055], [30.4037776, 39.860894]]}, "bbox": [30.4037124, 39.8551674, 30.4186049, 39.860894]}, {"id": "6861", "type": "Feature", "properties": {"name": null, "_mahalle_str": "Yeniakçayır Mahallesi", "_hvi_str": "%75", "_aciklama_str": "Sıcaklık: yüksek<br>Ağaç örtüsü: çok yüksek<br>Hastaneye uzaklık: çok uzak<br>Yeşil alana uzaklık: çok uzak<br>Yapılaşma yoğunluğu: çok seyrek<br>Nüfus yoğunluğu: seyrek<br>Yaşlı nüfus oranı: orta<br>Çocuk nüfus oranı: orta<br>Sosyoekonomik gelişmişlik: düşük"}, "geometry": {"type": "LineString", "coordinates": [[30.3838661, 39.7318136], [30.3840511, 39.7316032], [30.3840672, 39.7315516], [30.3840243, 39.731533], [30.3839323, 39.7315561], [30.3830424, 39.7320303], [30.3824935, 39.7323228], [30.3820361, 39.732514], [30.3819856, 39.7325478], [30.3819537, 39.7325763], [30.3819376, 39.7326048], [30.3819286, 39.7326385], [30.3819316, 39.7326784], [30.3819534, 39.7327104], [30.3823153, 39.7330276], [30.3834521, 39.7339025], [30.3834902, 39.7340428]]}, "bbox": [30.3819286, 39.731533, 30.3840672, 39.7340428]}, {"id": "6862", "type": "Feature", "properties": {"name": null, "_mahalle_str": "Kızılinler Mahallesi", "_hvi_str": "%79", "_aciklama_str": "Sıcaklık: çok yüksek<br>Ağaç örtüsü: yüksek<br>Hastaneye uzaklık: çok uzak<br>Yeşil alana uzaklık: çok uzak<br>Yapılaşma yoğunluğu: çok seyrek<br>Nüfus yoğunluğu: seyrek<br>Yaşlı nüfus oranı: orta<br>Çocuk nüfus oranı: orta<br>Sosyoekonomik gelişmişlik: düşük"}, "geometry": {"type": "LineString", "coordinates": [[30.4039342, 39.7096367], [30.4018998, 39.7084689], [30.4011563, 39.7081311], [30.4016981, 39.7075904], [30.4025735, 39.7079671]]}, "bbox": [30.4011563, 39.7075904, 30.4039342, 39.7096367]}, {"id": "6864", "type": "Feature", "properties": {"name": null, "_mahalle_str": "Kızılinler Mahallesi", "_hvi_str": "%78", "_aciklama_str": "Sıcaklık: çok yüksek<br>Ağaç örtüsü: orta<br>Hastaneye uzaklık: çok uzak<br>Yeşil alana uzaklık: çok uzak<br>Yapılaşma yoğunluğu: çok seyrek<br>Nüfus yoğunluğu: seyrek<br>Yaşlı nüfus oranı: orta<br>Çocuk nüfus oranı: orta<br>Sosyoekonomik gelişmişlik: düşük"}, "geometry": {"type": "LineString", "coordinates": [[30.4054833, 39.7084278], [30.4046914, 39.7090197], [30.4039342, 39.7096367], [30.4038115, 39.7097367], [30.4035938, 39.7099065]]}, "bbox": [30.4035938, 39.7084278, 30.4054833, 39.7099065]}, {"id": "6866", "type": "Feature", "properties": {"name": null, "_mahalle_str": "Yeniakçayır Mahallesi", "_hvi_str": "%77", "_aciklama_str": "Sıcaklık: çok yüksek<br>Ağaç örtüsü: yüksek<br>Hastaneye uzaklık: çok uzak<br>Yeşil alana uzaklık: çok uzak<br>Yapılaşma yoğunluğu: çok seyrek<br>Nüfus yoğunluğu: seyrek<br>Yaşlı nüfus oranı: orta<br>Çocuk nüfus oranı: orta<br>Sosyoekonomik gelişmişlik: düşük"}, "geometry": {"type": "LineString", "coordinates": [[30.3838344, 39.7347196], [30.3839898, 39.735004], [30.3842433, 39.7353063], [30.3850939, 39.7360777], [30.3855874, 39.7369935], [30.3867569, 39.736614], [30.3872799, 39.7365036]]}, "bbox": [30.3838344, 39.7347196, 30.3872799, 39.7369935]}, {"id": "7713", "type": "Feature", "properties": {"name": null, "_mahalle_str": "Keskin Mahallesi", "_hvi_str": "%76", "_aciklama_str": "Sıcaklık: çok yüksek<br>Ağaç örtüsü: çok yüksek<br>Hastaneye uzaklık: çok uzak<br>Yeşil alana uzaklık: çok uzak<br>Yapılaşma yoğunluğu: çok seyrek<br>Nüfus yoğunluğu: seyrek<br>Yaşlı nüfus oranı: orta<br>Çocuk nüfus oranı: orta<br>Sosyoekonomik gelişmişlik: düşük"}, "geometry": {"type": "LineString", "coordinates": [[30.3859241, 39.8573096], [30.3865434, 39.8569768], [30.3875035, 39.8565111], [30.3887655, 39.8558455]]}, "bbox": [30.3859241, 39.8558455, 30.3887655, 39.8573096]}, {"id": "7714", "type": "Feature", "properties": {"name": null, "_mahalle_str": "Keskin Mahallesi", "_hvi_str": "%78", "_aciklama_str": "Sıcaklık: yüksek<br>Ağaç örtüsü: düşük<br>Hastaneye uzaklık: çok uzak<br>Yeşil alana uzaklık: çok uzak<br>Yapılaşma yoğunluğu: çok seyrek<br>Nüfus yoğunluğu: seyrek<br>Yaşlı nüfus oranı: orta<br>Çocuk nüfus oranı: orta<br>Sosyoekonomik gelişmişlik: düşük"}, "geometry": {"type": "LineString", "coordinates": [[30.3889828, 39.8571035], [30.3893926, 39.8571097], [30.3896467, 39.8571803], [30.3899183, 39.8573014], [30.3900716, 39.857409], [30.3901855, 39.8574527], [30.3903038, 39.857446]]}, "bbox": [30.3889828, 39.8571035, 30.3903038, 39.8574527]}, {"id": "7715", "type": "Feature", "properties": {"name": null, "_mahalle_str": "Keskin Mahallesi", "_hvi_str": "%76", "_aciklama_str": "Sıcaklık: yüksek<br>Ağaç örtüsü: yüksek<br>Hastaneye uzaklık: çok uzak<br>Yeşil alana uzaklık: çok uzak<br>Yapılaşma yoğunluğu: çok seyrek<br>Nüfus yoğunluğu: seyrek<br>Yaşlı nüfus oranı: orta<br>Çocuk nüfus oranı: orta<br>Sosyoekonomik gelişmişlik: düşük"}, "geometry": {"type": "LineString", "coordinates": [[30.3889828, 39.8571035], [30.3888788, 39.8573532], [30.3888777, 39.8575694], [30.3888588, 39.8578023], [30.3889734, 39.8581929]]}, "bbox": [30.3888588, 39.8571035, 30.3889828, 39.8581929]}, {"id": "7716", "type": "Feature", "properties": {"name": null, "_mahalle_str": "Keskin Mahallesi", "_hvi_str": "%66", "_aciklama_str": "Sıcaklık: yüksek<br>Ağaç örtüsü: çok yüksek<br>Hastaneye uzaklık: çok uzak<br>Yeşil alana uzaklık: çok uzak<br>Yapılaşma yoğunluğu: çok seyrek<br>Nüfus yoğunluğu: seyrek<br>Yaşlı nüfus oranı: orta<br>Çocuk nüfus oranı: orta<br>Sosyoekonomik gelişmişlik: düşük"}, "geometry": {"type": "LineString", "coordinates": [[30.3801742, 39.8299435], [30.3801644, 39.8307974], [30.3802112, 39.831414], [30.3803555, 39.8321492], [30.3805984, 39.8328794], [30.3808942, 39.8336578], [30.3814888, 39.8351578], [30.3817291, 39.83556], [30.38207, 39.836227], [30.3824903, 39.8372096], [30.3825604, 39.8374212], [30.3829013, 39.838289], [30.3830601, 39.8387372], [30.3831301, 39.8389488], [30.3832796, 39.8403221], [30.3835653, 39.8426385], [30.3836765, 39.8431046], [30.3838463, 39.8442682], [30.3841622, 39.8453349], [30.3843216, 39.8459942], [30.3845647, 39.8467943], [30.3847143, 39.8471735], [30.3852555, 39.8482712], [30.3862227, 39.8499596], [30.3865356, 39.850404], [30.3873989, 39.8515839], [30.3878287, 39.8526131], [30.3882494, 39.8538927], [30.3884502, 39.854459], [30.3887255, 39.8554596], [30.3887655, 39.8558455]]}, "bbox": [30.3801644, 39.8299435, 30.3887655, 39.8558455]}, {"id": "7717", "type": "Feature", "properties": {"name": null, "_mahalle_str": "Keskin Mahallesi", "_hvi_str": "%75", "_aciklama_str": "Sıcaklık: yüksek<br>Ağaç örtüsü: yüksek<br>Hastaneye uzaklık: çok uzak<br>Yeşil alana uzaklık: çok uzak<br>Yapılaşma yoğunluğu: çok seyrek<br>Nüfus yoğunluğu: seyrek<br>Yaşlı nüfus oranı: orta<br>Çocuk nüfus oranı: orta<br>Sosyoekonomik gelişmişlik: düşük"}, "geometry": {"type": "LineString", "coordinates": [[30.3887655, 39.8558455], [30.3892019, 39.855508], [30.3903838, 39.8550233], [30.3911934, 39.8548368], [30.3918734, 39.8547125], [30.3927768, 39.8546762]]}, "bbox": [30.3887655, 39.8546762, 30.3927768, 39.8558455]}, {"id": "7748", "type": "Feature", "properties": {"name": null, "_mahalle_str": "Kızılinler Mahallesi", "_hvi_str": "%75", "_aciklama_str": "Sıcaklık: çok yüksek<br>Ağaç örtüsü: yüksek<br>Hastaneye uzaklık: çok uzak<br>Yeşil alana uzaklık: çok uzak<br>Yapılaşma yoğunluğu: çok seyrek<br>Nüfus yoğunluğu: seyrek<br>Yaşlı nüfus oranı: orta<br>Çocuk nüfus oranı: orta<br>Sosyoekonomik gelişmişlik: düşük"}, "geometry": {"type": "LineString", "coordinates": [[30.4074063, 39.7111515], [30.4071557, 39.7110933], [30.4065827, 39.710944], [30.4053626, 39.7105008], [30.4042287, 39.7098039], [30.4040439, 39.7098821], [30.4038115, 39.7097367]]}, "bbox": [30.4038115, 39.7097367, 30.4074063, 39.7111515]}, {"id": "7993", "type": "Feature", "properties": {"name": null, "_mahalle_str": "Keskin Mahallesi", "_hvi_str": "%80", "_aciklama_str": "Sıcaklık: çok yüksek<br>Ağaç örtüsü: orta<br>Hastaneye uzaklık: çok uzak<br>Yeşil alana uzaklık: çok uzak<br>Yapılaşma yoğunluğu: çok seyrek<br>Nüfus yoğunluğu: seyrek<br>Yaşlı nüfus oranı: orta<br>Çocuk nüfus oranı: orta<br>Sosyoekonomik gelişmişlik: düşük"}, "geometry": {"type": "LineString", "coordinates": [[30.3889734, 39.8581929], [30.3887315, 39.858144], [30.3881116, 39.8579979], [30.387104, 39.8577583], [30.3863537, 39.8574976], [30.3859241, 39.8573096], [30.3846835, 39.8567872], [30.3846241, 39.8567489], [30.3840418, 39.8563734]]}, "bbox": [30.3840418, 39.8563734, 30.3889734, 39.8581929]}, {"id": "8137", "type": "Feature", "properties": {"name": null, "_mahalle_str": "Yeniakçayır Mahallesi", "_hvi_str": "%77", "_aciklama_str": "Sıcaklık: yüksek<br>Ağaç örtüsü: düşük<br>Hastaneye uzaklık: çok uzak<br>Yeşil alana uzaklık: çok uzak<br>Yapılaşma yoğunluğu: çok seyrek<br>Nüfus yoğunluğu: seyrek<br>Yaşlı nüfus oranı: orta<br>Çocuk nüfus oranı: orta<br>Sosyoekonomik gelişmişlik: düşük"}, "geometry": {"type": "LineString", "coordinates": [[30.3830356, 39.7340987], [30.3830813, 39.7340182], [30.3831674, 39.7339458], [30.3833037, 39.7339011]]}, "bbox": [30.3830356, 39.7339011, 30.3833037, 39.7340987]}, {"id": "8563", "type": "Feature", "properties": {"name": null, "_mahalle_str": "Sazova Mahallesi", "_hvi_str": "%72", "_aciklama_str": "Sıcaklık: orta<br>Ağaç örtüsü: orta<br>Hastaneye uzaklık: çok uzak<br>Yeşil alana uzaklık: çok uzak<br>Yapılaşma yoğunluğu: seyrek<br>Nüfus yoğunluğu: seyrek<br>Yaşlı nüfus oranı: orta<br>Çocuk nüfus oranı: orta<br>Sosyoekonomik gelişmişlik: düşük"}, "geometry": {"type": "LineString", "coordinates": [[30.407732, 39.7640264], [30.4120598, 39.7643658]]}, "bbox": [30.407732, 39.7640264, 30.4120598, 39.7643658]}, {"id": "8564", "type": "Feature", "properties": {"name": null, "_mahalle_str": "Sazova Mahallesi", "_hvi_str": "%67", "_aciklama_str": "Sıcaklık: düşük<br>Ağaç örtüsü: çok yüksek<br>Hastaneye uzaklık: çok uzak<br>Yeşil alana uzaklık: çok uzak<br>Yapılaşma yoğunluğu: orta<br>Nüfus yoğunluğu: seyrek<br>Yaşlı nüfus oranı: orta<br>Çocuk nüfus oranı: orta<br>Sosyoekonomik gelişmişlik: düşük"}, "geometry": {"type": "LineString", "coordinates": [[30.4121477, 39.7652641], [30.4120598, 39.7643658], [30.4118987, 39.762334]]}, "bbox": [30.4118987, 39.762334, 30.4121477, 39.7652641]}, {"id": "8565", "type": "Feature", "properties": {"name": null, "_mahalle_str": "Sazova Mahallesi", "_hvi_str": "%71", "_aciklama_str": "Sıcaklık: yüksek<br>Ağaç örtüsü: çok yüksek<br>Hastaneye uzaklık: çok uzak<br>Yeşil alana uzaklık: çok uzak<br>Yapılaşma yoğunluğu: seyrek<br>Nüfus yoğunluğu: seyrek<br>Yaşlı nüfus oranı: orta<br>Çocuk nüfus oranı: orta<br>Sosyoekonomik gelişmişlik: düşük"}, "geometry": {"type": "LineString", "coordinates": [[30.4168072, 39.7651402], [30.4164223, 39.7643917], [30.4161168, 39.7637482], [30.4156988, 39.7628678], [30.4153893, 39.7621214], [30.4153747, 39.7620799], [30.4151913, 39.7614513], [30.4151689, 39.761404], [30.4151038, 39.761404], [30.4137758, 39.7615836]]}, "bbox": [30.4137758, 39.761404, 30.4168072, 39.7651402]}, {"id": "8659", "type": "Feature", "properties": {"name": null, "_mahalle_str": "Karagözler Mahallesi", "_hvi_str": "%72", "_aciklama_str": "Sıcaklık: çok yüksek<br>Ağaç örtüsü: orta<br>Hastaneye uzaklık: çok uzak<br>Yeşil alana uzaklık: çok uzak<br>Yapılaşma yoğunluğu: çok seyrek<br>Nüfus yoğunluğu: seyrek<br>Yaşlı nüfus oranı: orta<br>Çocuk nüfus oranı: orta<br>Sosyoekonomik gelişmişlik: düşük"}, "geometry": {"type": "LineString", "coordinates": [[30.4062783, 39.742067], [30.4062126, 39.7423291]]}, "bbox": [30.4062126, 39.742067, 30.4062783, 39.7423291]}, {"id": "8971", "type": "Feature", "properties": {"name": "Eskişehir- Sarıcakaya yolu", "_mahalle_str": "Muttalip Emirler Mahallesi", "_hvi_str": "%70", "_aciklama_str": "Sıcaklık: çok yüksek<br>Ağaç örtüsü: düşük<br>Hastaneye uzaklık: çok uzak<br>Yeşil alana uzaklık: çok uzak<br>Yapılaşma yoğunluğu: çok seyrek<br>Nüfus yoğunluğu: seyrek<br>Yaşlı nüfus oranı: orta<br>Çocuk nüfus oranı: orta<br>Sosyoekonomik gelişmişlik: düşük"}, "geometry": {"type": "LineString", "coordinates": [[30.5991283, 39.8490255], [30.5982783, 39.8490221], [30.5900332, 39.8477556], [30.588837, 39.8475693], [30.5836362, 39.8467713], [30.5800825, 39.8462268], [30.5786499, 39.8460073], [30.5756325, 39.845544], [30.5730924, 39.8451609], [30.5728483, 39.8450991], [30.5726767, 39.8450332], [30.5725902, 39.8449521]]}, "bbox": [30.5725902, 39.8449521, 30.5991283, 39.8490255]}, {"id": "8977", "type": "Feature", "properties": {"name": "Eskişehir- Sarıcakaya yolu", "_mahalle_str": "Muttalip Emirler Mahallesi", "_hvi_str": "%75", "_aciklama_str": "Sıcaklık: çok yüksek<br>Ağaç örtüsü: düşük<br>Hastaneye uzaklık: çok uzak<br>Yeşil alana uzaklık: çok uzak<br>Yapılaşma yoğunluğu: çok seyrek<br>Nüfus yoğunluğu: seyrek<br>Yaşlı nüfus oranı: orta<br>Çocuk nüfus oranı: orta<br>Sosyoekonomik gelişmişlik: düşük"}, "geometry": {"type": "LineString", "coordinates": [[30.5862118, 39.8470388], [30.5871387, 39.8471846], [30.5951437, 39.8484051], [30.597739, 39.8488086], [30.5991283, 39.8490255]]}, "bbox": [30.5862118, 39.8470388, 30.5991283, 39.8490255]}, {"id": "8981", "type": "Feature", "properties": {"name": null, "_mahalle_str": "Muttalip Emirler Mahallesi", "_hvi_str": "%71", "_aciklama_str": "Sıcaklık: orta<br>Ağaç örtüsü: yüksek<br>Hastaneye uzaklık: çok uzak<br>Yeşil alana uzaklık: çok uzak<br>Yapılaşma yoğunluğu: çok seyrek<br>Nüfus yoğunluğu: seyrek<br>Yaşlı nüfus oranı: orta<br>Çocuk nüfus oranı: orta<br>Sosyoekonomik gelişmişlik: düşük"}, "geometry": {"type": "LineString", "coordinates": [[30.6106803, 39.831918], [30.6106991, 39.8318601]]}, "bbox": [30.6106803, 39.8318601, 30.6106991, 39.831918]}, {"id": "8982", "type": "Feature", "properties": {"name": null, "_mahalle_str": "Muttalip Emirler Mahallesi", "_hvi_str": "%71", "_aciklama_str": "Sıcaklık: orta<br>Ağaç örtüsü: yüksek<br>Hastaneye uzaklık: çok uzak<br>Yeşil alana uzaklık: çok uzak<br>Yapılaşma yoğunluğu: çok seyrek<br>Nüfus yoğunluğu: seyrek<br>Yaşlı nüfus oranı: orta<br>Çocuk nüfus oranı: orta<br>Sosyoekonomik gelişmişlik: düşük"}, "geometry": {"type": "LineString", "coordinates": [[30.6106433, 39.8320314], [30.6106803, 39.831918]]}, "bbox": [30.6106433, 39.831918, 30.6106803, 39.8320314]}, {"id": "8983", "type": "Feature", "properties": {"name": null, "_mahalle_str": "Muttalip Emirler Mahallesi", "_hvi_str": "%75", "_aciklama_str": "Sıcaklık: çok yüksek<br>Ağaç örtüsü: çok yüksek<br>Hastaneye uzaklık: çok uzak<br>Yeşil alana uzaklık: çok uzak<br>Yapılaşma yoğunluğu: çok seyrek<br>Nüfus yoğunluğu: seyrek<br>Yaşlı nüfus oranı: orta<br>Çocuk nüfus oranı: orta<br>Sosyoekonomik gelişmişlik: düşük"}, "geometry": {"type": "LineString", "coordinates": [[30.6105061, 39.8346663], [30.6102383, 39.8344247], [30.6101847, 39.8342847], [30.6101659, 39.8341199], [30.6101686, 39.8335226], [30.6101981, 39.8328552], [30.6102598, 39.8325092], [30.6103376, 39.8323547], [30.6106058, 39.8320849], [30.6106433, 39.8320314]]}, "bbox": [30.6101659, 39.8320314, 30.6106433, 39.8346663]}, {"id": "8984", "type": "Feature", "properties": {"name": null, "_mahalle_str": "Muttalip Emirler Mahallesi", "_hvi_str": "%68", "_aciklama_str": "Sıcaklık: düşük<br>Ağaç örtüsü: çok yüksek<br>Hastaneye uzaklık: çok uzak<br>Yeşil alana uzaklık: çok uzak<br>Yapılaşma yoğunluğu: çok seyrek<br>Nüfus yoğunluğu: seyrek<br>Yaşlı nüfus oranı: orta<br>Çocuk nüfus oranı: orta<br>Sosyoekonomik gelişmişlik: düşük"}, "geometry": {"type": "LineString", "coordinates": [[30.5755815, 39.8398064], [30.5781081, 39.8380682], [30.5785507, 39.8377757], [30.5788243, 39.8376295], [30.5791837, 39.8375368], [30.5802566, 39.8373412], [30.5841243, 39.8365894], [30.5844194, 39.8365235], [30.5846661, 39.8364123], [30.5860499, 39.835604], [30.5869755, 39.8350632], [30.5894351, 39.8336462], [30.5904436, 39.8330674], [30.5907467, 39.8329212], [30.5908978, 39.8328649], [30.5923828, 39.8323115], [30.5933645, 39.8319325], [30.5936623, 39.8318027], [30.5940056, 39.8315782], [30.5954137, 39.8306101], [30.5956498, 39.8304907], [30.5969104, 39.8301858], [30.598391, 39.8298295], [30.5986646, 39.8298027], [30.5989677, 39.8298295], [30.6000486, 39.8300169], [30.6058019, 39.8310138], [30.6090394, 39.8315659], [30.6106991, 39.8318601], [30.6123036, 39.8321446], [30.6127328, 39.8321982], [30.612997, 39.8322106], [30.6132022, 39.8321951], [30.6134462, 39.8321694], [30.6136675, 39.832122], [30.6139652, 39.8320241], [30.6186658, 39.8299613], [30.6196126, 39.8295637], [30.6200311, 39.8294381], [30.6202725, 39.829399], [30.6209122, 39.8293186], [30.6222425, 39.8291487], [30.6227441, 39.8290478], [30.6233758, 39.8288902], [30.6258461, 39.8282496], [30.6270839, 39.8279715], [30.6274728, 39.8279066], [30.6280737, 39.8278809], [30.6284639, 39.8278551], [30.6285739, 39.8278273], [30.6287, 39.8277851], [30.628814, 39.827712], [30.6295153, 39.8269858], [30.6298399, 39.8266491], [30.6300397, 39.8265244], [30.6302865, 39.82644], [30.6307706, 39.8263339], [30.6315941, 39.8262113], [30.6318489, 39.8261495], [30.6320326, 39.8260486], [30.6321748, 39.8259322], [30.6329848, 39.8249908], [30.633198, 39.8247271], [30.6332865, 39.8245747], [30.633422, 39.824242], [30.6337613, 39.8234221], [30.6340992, 39.8225508], [30.6345083, 39.8215661], [30.6348972, 39.8205783], [30.6352781, 39.8196275], [30.6361833, 39.8173624], [30.6365508, 39.8164291], [30.6371194, 39.8149787], [30.637334, 39.8145193], [30.6374359, 39.8143668], [30.6376049, 39.8142226], [30.637849, 39.8140825], [30.6387946, 39.8137156]]}, "bbox": [30.5755815, 39.8137156, 30.6387946, 39.8398064]}, {"id": "9067", "type": "Feature", "properties": {"name": null, "_mahalle_str": "Keskin Mahallesi", "_hvi_str": "%75", "_aciklama_str": "Sıcaklık: çok yüksek<br>Ağaç örtüsü: çok yüksek<br>Hastaneye uzaklık: çok uzak<br>Yeşil alana uzaklık: çok uzak<br>Yapılaşma yoğunluğu: çok seyrek<br>Nüfus yoğunluğu: seyrek<br>Yaşlı nüfus oranı: orta<br>Çocuk nüfus oranı: orta<br>Sosyoekonomik gelişmişlik: düşük"}, "geometry": {"type": "LineString", "coordinates": [[30.4044646, 39.8608627], [30.404377, 39.8601372], [30.4040248, 39.8599996]]}, "bbox": [30.4040248, 39.8599996, 30.4044646, 39.8608627]}, {"id": "9098", "type": "Feature", "properties": {"name": null, "_mahalle_str": "Sazova Mahallesi", "_hvi_str": "%71", "_aciklama_str": "Sıcaklık: düşük<br>Ağaç örtüsü: yüksek<br>Hastaneye uzaklık: çok uzak<br>Yeşil alana uzaklık: çok uzak<br>Yapılaşma yoğunluğu: orta<br>Nüfus yoğunluğu: seyrek<br>Yaşlı nüfus oranı: orta<br>Çocuk nüfus oranı: orta<br>Sosyoekonomik gelişmişlik: düşük"}, "geometry": {"type": "LineString", "coordinates": [[30.4147761, 39.7655386], [30.414653, 39.7652028], [30.4145387, 39.7647535], [30.4143643, 39.7640672], [30.4140309, 39.7627559], [30.4139079, 39.7621904], [30.4137758, 39.7615836], [30.4136854, 39.7611683]]}, "bbox": [30.4136854, 39.7611683, 30.4147761, 39.7655386]}, {"id": "9099", "type": "Feature", "properties": {"name": null, "_mahalle_str": "Sazova Mahallesi", "_hvi_str": "%76", "_aciklama_str": "Sıcaklık: çok yüksek<br>Ağaç örtüsü: yüksek<br>Hastaneye uzaklık: çok uzak<br>Yeşil alana uzaklık: çok uzak<br>Yapılaşma yoğunluğu: orta<br>Nüfus yoğunluğu: seyrek<br>Yaşlı nüfus oranı: orta<br>Çocuk nüfus oranı: orta<br>Sosyoekonomik gelişmişlik: düşük"}, "geometry": {"type": "LineString", "coordinates": [[30.4139079, 39.7621904], [30.414596, 39.7621215], [30.4153747, 39.7620799], [30.415958, 39.762059]]}, "bbox": [30.4139079, 39.762059, 30.415958, 39.7621904]}, {"id": "9100", "type": "Feature", "properties": {"name": null, "_mahalle_str": "Sazova Mahallesi", "_hvi_str": "%77", "_aciklama_str": "Sıcaklık: yüksek<br>Ağaç örtüsü: orta<br>Hastaneye uzaklık: çok uzak<br>Yeşil alana uzaklık: çok uzak<br>Yapılaşma yoğunluğu: orta<br>Nüfus yoğunluğu: seyrek<br>Yaşlı nüfus oranı: orta<br>Çocuk nüfus oranı: orta<br>Sosyoekonomik gelişmişlik: düşük"}, "geometry": {"type": "LineString", "coordinates": [[30.4143643, 39.7640672], [30.414681, 39.764101], [30.4149778, 39.7641041], [30.4152055, 39.7640635], [30.4161168, 39.7637482]]}, "bbox": [30.4143643, 39.7637482, 30.4161168, 39.7641041]}, {"id": "9101", "type": "Feature", "properties": {"name": null, "_mahalle_str": "Sazova Mahallesi", "_hvi_str": "%71", "_aciklama_str": "Sıcaklık: düşük<br>Ağaç örtüsü: yüksek<br>Hastaneye uzaklık: çok uzak<br>Yeşil alana uzaklık: çok uzak<br>Yapılaşma yoğunluğu: orta<br>Nüfus yoğunluğu: seyrek<br>Yaşlı nüfus oranı: orta<br>Çocuk nüfus oranı: orta<br>Sosyoekonomik gelişmişlik: düşük"}, "geometry": {"type": "LineString", "coordinates": [[30.4145387, 39.7647535], [30.415112, 39.7647948], [30.4154982, 39.7647635], [30.4160064, 39.7645885], [30.4164223, 39.7643917], [30.4170959, 39.7641323]]}, "bbox": [30.4145387, 39.7641323, 30.4170959, 39.7647948]}, {"id": "9458", "type": "Feature", "properties": {"name": null, "_mahalle_str": "Keskin Mahallesi", "_hvi_str": "%69", "_aciklama_str": "Sıcaklık: orta<br>Ağaç örtüsü: çok yüksek<br>Hastaneye uzaklık: çok uzak<br>Yeşil alana uzaklık: çok uzak<br>Yapılaşma yoğunluğu: çok seyrek<br>Nüfus yoğunluğu: seyrek<br>Yaşlı nüfus oranı: orta<br>Çocuk nüfus oranı: orta<br>Sosyoekonomik gelişmişlik: düşük"}, "geometry": {"type": "LineString", "coordinates": [[30.3977966, 39.8589767], [30.3979683, 39.8588563], [30.3980407, 39.8587615], [30.3981775, 39.8584836], [30.3981668, 39.8581459], [30.3980595, 39.8577341], [30.3980648, 39.857312], [30.3981668, 39.8569867], [30.3983304, 39.856612], [30.3986281, 39.8561261], [30.3988749, 39.855671], [30.3989929, 39.8553848], [30.3990439, 39.855148], [30.3989688, 39.8548762], [30.3989339, 39.8546147], [30.3989258, 39.8544809], [30.3989339, 39.8543615], [30.3990117, 39.8542647], [30.3991216, 39.8542111], [30.3993577, 39.8541473], [30.3994945, 39.8540547], [30.3995723, 39.8538858], [30.3998485, 39.8532351], [30.400098, 39.8526977], [30.4002589, 39.8518102]]}, "bbox": [30.3977966, 39.8518102, 30.4002589, 39.8589767]}, {"id": "9459", "type": "Feature", "properties": {"name": null, "_mahalle_str": "Keskin Mahallesi", "_hvi_str": "%75", "_aciklama_str": "Sıcaklık: çok yüksek<br>Ağaç örtüsü: çok yüksek<br>Hastaneye uzaklık: çok uzak<br>Yeşil alana uzaklık: çok uzak<br>Yapılaşma yoğunluğu: çok seyrek<br>Nüfus yoğunluğu: seyrek<br>Yaşlı nüfus oranı: orta<br>Çocuk nüfus oranı: orta<br>Sosyoekonomik gelişmişlik: düşük"}, "geometry": {"type": "LineString", "coordinates": [[30.3973633, 39.8590231], [30.3977966, 39.8589767], [30.3979468, 39.859267], [30.39803, 39.859408], [30.3980383, 39.8595363]]}, "bbox": [30.3973633, 39.8589767, 30.3980383, 39.8595363]}, {"id": "9460", "type": "Feature", "properties": {"name": null, "_mahalle_str": "Keskin Mahallesi", "_hvi_str": "%68", "_aciklama_str": "Sıcaklık: düşük<br>Ağaç örtüsü: çok yüksek<br>Hastaneye uzaklık: çok uzak<br>Yeşil alana uzaklık: çok uzak<br>Yapılaşma yoğunluğu: çok seyrek<br>Nüfus yoğunluğu: seyrek<br>Yaşlı nüfus oranı: orta<br>Çocuk nüfus oranı: orta<br>Sosyoekonomik gelişmişlik: düşük"}, "geometry": {"type": "LineString", "coordinates": [[30.3931269, 39.8547362], [30.3932208, 39.8544479], [30.3933683, 39.8542317], [30.3936553, 39.8539991], [30.3940952, 39.8538014], [30.3946611, 39.8536181], [30.3955811, 39.8533216], [30.3962865, 39.8530972], [30.3969786, 39.8529222], [30.3977108, 39.8526936], [30.3987113, 39.8523518], [30.3995293, 39.8519853], [30.4000443, 39.8518185], [30.4002589, 39.8518102], [30.401321, 39.8513304], [30.4022652, 39.8508198], [30.4027051, 39.8504862], [30.4031235, 39.8502308], [30.4033488, 39.8501608], [30.4035446, 39.8501773], [30.4036454, 39.850145]]}, "bbox": [30.3931269, 39.850145, 30.4036454, 39.8547362]}, {"id": "9462", "type": "Feature", "properties": {"name": null, "_mahalle_str": "Keskin Mahallesi", "_hvi_str": "%73", "_aciklama_str": "Sıcaklık: çok yüksek<br>Ağaç örtüsü: düşük<br>Hastaneye uzaklık: çok uzak<br>Yeşil alana uzaklık: çok uzak<br>Yapılaşma yoğunluğu: çok seyrek<br>Nüfus yoğunluğu: seyrek<br>Yaşlı nüfus oranı: orta<br>Çocuk nüfus oranı: orta<br>Sosyoekonomik gelişmişlik: düşük"}, "geometry": {"type": "LineString", "coordinates": [[30.4153237, 39.8404289], [30.4155368, 39.841038], [30.415805, 39.8423478], [30.4160303, 39.8433981], [30.4161134, 39.8443804], [30.4162395, 39.8453875], [30.4163253, 39.8461494], [30.4164246, 39.8468063], [30.4165882, 39.8477268], [30.4168537, 39.8486844], [30.4171783, 39.8493063], [30.4175994, 39.8499034], [30.4181117, 39.8509866], [30.4182887, 39.8514406], [30.4184389, 39.8520985], [30.418463, 39.8533669], [30.4186159, 39.8541041], [30.4186401, 39.8544047], [30.4186049, 39.8551674], [30.4186401, 39.8557317], [30.4186977, 39.8558913], [30.4190075, 39.8565296], [30.4191658, 39.8568961], [30.4192074, 39.857136], [30.4191054, 39.857415], [30.4190049, 39.8577732], [30.4189593, 39.8585268], [30.4189472, 39.8592269], [30.4190505, 39.8600803], [30.4191135, 39.8604272], [30.419084, 39.8606228], [30.4190364, 39.8610891], [30.4190907, 39.8614144], [30.4191658, 39.8616759], [30.4190658, 39.8620751]]}, "bbox": [30.4153237, 39.8404289, 30.4192074, 39.8620751]}, {"id": "9464", "type": "Feature", "properties": {"name": null, "_mahalle_str": "Keskin Mahallesi", "_hvi_str": "%67", "_aciklama_str": "Sıcaklık: yüksek<br>Ağaç örtüsü: çok yüksek<br>Hastaneye uzaklık: çok uzak<br>Yeşil alana uzaklık: çok uzak<br>Yapılaşma yoğunluğu: çok seyrek<br>Nüfus yoğunluğu: seyrek<br>Yaşlı nüfus oranı: orta<br>Çocuk nüfus oranı: orta<br>Sosyoekonomik gelişmişlik: düşük"}, "geometry": {"type": "LineString", "coordinates": [[30.4036454, 39.850145], [30.4040837, 39.8499508], [30.4049903, 39.8496378], [30.4058862, 39.8493248], [30.4067284, 39.8490036], [30.4073292, 39.8487503], [30.4079139, 39.848359], [30.4084933, 39.8479327], [30.4088098, 39.8476856], [30.4089519, 39.8475374], [30.4093328, 39.8471296], [30.4096949, 39.8468331], [30.4102448, 39.8464686], [30.4111862, 39.8458096], [30.4117227, 39.8454636], [30.4118186, 39.8454409]]}, "bbox": [30.4036454, 39.8454409, 30.4118186, 39.850145]}], "bbox": [30.3435272, 39.651172, 30.6877838, 39.9169212]}